X,Y,OBJECTID,FEATURE_ID,ESITE,CODE,NAME,ABB_NAME,ADDRESS,ZIPCODE,LONG_CEN,LAT_CEN,SCH_CLASS,DISTRICT,PIN,MAJOR,MINOR,FEATUREDES,OSPI_CODE
-122.152302857805367,47.608460571194968,1,207,80,School-High,Sammamish High School,Sammamish,100 140th Ave SE,98005,-122.15230454,47.60845843,10,BELLEVUE,3425059019,342505,9019,School-High,3282
-122.205414761768452,47.768906453577692,2,263,113,School-Elementary,Saint Brendan Catholic School,Saint Brendan,10049 NE 195th St,98011,-122.20541574,47.76890453,20,NORTHSHORE,0526059084,052605,9084,School-Elementary,0
-122.348454353604524,47.525265125530915,3,884,527409,School-Elementary,Highland Park Elementary School,Highland Park,1012 SW Trenton St,98106,-122.34845646,47.5252633,10,SEATTLE,7972603210,797260,3210,School-Elementary,2269
-122.200169847335346,47.667244502040582,4,475,8634,School-Elementary,Lakeview Elementary School,Lakeview,10400 NE 68th St,98033,-122.20017129,47.66724247,10,LAKE WASHINGTON,7882600132,788260,0132,School-Elementary,3041
-122.294726678390447,47.708042109459718,5,1093,12282,School-High,Nathan Hale High School,Nathan Hale,10750 30th Ave NE,98125,-122.29472798,47.70804026,10,SEATTLE,2826049152,282604,9152,School-High,3479
-122.191117367185996,47.663801985006977,6,6600178,8643,School-Alternative,International Community School,International Community,11133 NE 65th St  ,98033,-122.19111882,47.66379994,10,LAKE WASHINGTON,0825059248,082505,9248,School-Alternative,1706
-122.315783450318563,47.501999795624847,7,1286,12270,School-Elementary,Southern Heights Elementary School,Southern Heights,11249 14th Ave S,98168,-122.31578566,47.50199793,10,HIGHLINE,3361400255,336140,0255,School-Elementary,3032
-122.18372714468299,47.505722633023012,8,6600369,12184,School-Junior High/Middle,McKnight Middle School,McKnight,1200 Edmonds Ave NE,98056,-122.18372931,47.50572053,10,RENTON,0423059048,042305,9048,School-Junior High/Middle,3035
-122.232295934040948,47.492521753003551,9,1307,519618,School-Junior High/Middle,Dimmit Middle School,Dimmit,12320 80th Ave S,98178,-122.23229819,47.49251977,10,RENTON,1180007450,118000,7450,School-Junior High/Middle,3280
-121.875816552131511,47.532493380169775,10,6600676,195119,School-Elementary,Cascade View Elementary School-Snoqualmie,Cascade View,34816 SE Ridge St,98065,-121.87581831,47.53249075,10,SNOQUALMIE VALLEY,2624079047,262407,9047,School-Elementary,5015
-122.340484252165169,47.695104584005563,11,6600134,269619,School-Junior High/Middle,Robert Eagle Staff Middle School,Robert Eagle Staff,1330 N 90th St,98103,-122.34048561,47.69510282,10,SEATTLE,3126049064,312604,9064,School-Junior High/Middle,0
-122.175720940656603,47.313574653216023,12,46,778311,School-College or University,Green River College,GRC,12401 SE 320th St,98092,-122.17572419,47.31357254,10,AUBURN,1621059003,162105,9003,School-College or University,5952
-122.308027149625516,47.631931480906239,13,950,425772,School-Elementary,Stevens Elementary School,Stevens,1242 18th Ave E,98112,-122.30802878,47.63192964,10,SEATTLE,1337801270,133780,1270,School-Elementary,2080
-122.173963495028204,47.416671558895295,14,381,8580,School-High,Kentridge High School,Kentridge,12430 SE 208th St,98031,-122.17396616,47.41666943,10,KENT,0422059014,042205,9014,School-High,3640
-122.173308889119994,47.662137409915061,15,451,8638,School-Elementary,Benjamin Franklin Elementary School,Benjamin Franklin,12434 NE 60th St,98033,-122.17331033,47.66213533,10,LAKE WASHINGTON,0925059028,092505,9028,School-Elementary,0
-122.172497840216778,47.431037252662904,16,737,604256,School-Junior High/Middle,Meeker Middle School,Meeker,12600 SE 192nd St,98058,-122.17250042,47.43103512,10,KENT,3323059054,332305,9054,School-Junior High/Middle,3764
-122.172876368747481,47.591957987315105,17,169,89,School-Elementary,Woodridge Elementary School,Woodridge,12619 SE 20th Pl,98005,-122.17287814,47.59195588,10,BELLEVUE,9541600595,954160,0595,School-Elementary,3167
-122.170913656980034,47.552171359131606,18,6600686,237975,School-Alternative,Jing Mei Elementary School,Jing Mei,12635 SE 56th St,98006,-122.17091561,47.55216924,10,BELLEVUE,2124059022,212405,9022,School-Alternative,
-122.171899905922615,47.406136885447445,19,400,8585,School-Elementary,Soos Creek Elementary School,Soos Creek,12651 SE 218th Pl,98031,-122.17190263,47.40613476,10,KENT,0922059107,092205,9107,School-Elementary,3707
-122.1709941081659,47.378333772564353,20,401,670208,School-Elementary,Martin Sortun Elementary School,Martin Sortun ,12711 SE 248th St,98030,-122.17099699,47.37833164,10,KENT,2122059018,212205,9018,School-Elementary,4294
-122.23044438529395,47.715924932106823,21,499,8618,School-Elementary,Carl Sandburg Elementary School,Carl Sandburg,12801 84th Ave NE,98034,-122.23044563,47.71592296,10,LAKE WASHINGTON,3840700025,384070,0025,School-Elementary,0
-122.23044438529395,47.715924932106823,22,6600012,8618,School-Alternative,Discovery Community School,Discovery Community,12801 84th Ave NE,98034,-122.23044563,47.71592296,10,LAKE WASHINGTON,3840700025,384070,0025,School-Alternative,1658
-122.306856390165166,47.724055437687959,23,1099,248792,School-Elementary,Olympic Hills Elementary School,Olympic Hills,13018 20th Ave NE,98125,-122.30685762,47.72405361,10,SEATTLE,2126049041,212604,9041,School-Elementary,2976
-122.354334721182838,47.724682420195165,24,1129,247735,School-Elementary,Broadview-Thomson K-8 School,Broadview-Thomson,13052 Greenwood Ave N,98133,-122.35433594,47.7246807,10,SEATTLE,1926049025,192604,9025,School-Elementary,2209
-122.352217548896704,47.310174823888808,25,329,2382,School-Elementary,Silver Lake Elementary School,Silver Lake,1310 SW 325th Pl,98023,-122.35222083,47.31017308,10,FEDERAL WAY,1821049033,182104,9033,School-Elementary,4343
-122.211068770257469,47.30645126801484,26,69,41,School-Elementary,Valley Christian School,Valley Christian,1312 2nd St SE,98002,-122.21107206,47.30644924,20,AUBURN,2149800171,214980,0171,School-Elementary,0
-122.195949892366187,47.686038779439876,27,485,8628,School-Elementary,Peter Kirk Elementary School,Peter Kirk,1312 6th St,98033,-122.19595125,47.68603675,10,LAKE WASHINGTON,3982701890,398270,1890,School-Elementary,0
-122.373077407812062,47.683591111852579,28,1018,835325,School-Elementary,Whittier Elementary School,Whittier,1320 NW 75th St,98117,-122.37307881,47.68358941,10,SEATTLE,4240400005,424040,0005,School-Elementary,2092
-122.340484252165169,47.695104584005563,29,2148,269619,School-Alternative,Licton Springs K-8 School,Licton Springs,1330 N 90th St,98103,-122.34048561,47.69510282,10,SEATTLE,3126049064,312604,9064,School-Alternative,0
-121.766951436202419,47.480212798815529,30,596,12129,School-Elementary,Opstad Elementary School,Opstad,1345 Stilson Ave SE,98045,-121.7669531,47.48021026,10,SNOQUALMIE VALLEY,1523089156,152308,9156,School-Elementary,4308
-122.291812617600584,47.602101970204949,31,1066,447772,School-Elementary,Leschi Elementary School,Leschi,135 32nd Ave,98122,-122.29181439,47.60210009,10,SEATTLE,3416600240,341660,0240,School-Elementary,2121
-122.15971093514267,47.669403550564347,32,637,12152,School-Junior High/Middle,Rose Hill Middle School,Rose Hill Middle,13505 NE 75th St,98052,-122.15971234,47.66940145,10,LAKE WASHINGTON,1025059119,102505,9119,School-Junior High/Middle,3706
-122.15971093514267,47.669403550564347,33,6600179,12152,School-Alternative,Stella Schola Middle Schol,Stella Schola,13505 NE 75th St,98052,-122.15971234,47.66940145,10,LAKE WASHINGTON,1025059119,102505,9119,School-Alternative,1975
-122.327678046435466,47.72798522576349,34,1091,254609,School-Junior High/Middle,Lakeside Middle School,Lakeside Middle,13510 1st Ave NE,98125,-122.32767925,47.72798345,20,SEATTLE,2026049022,202604,9022,School-Junior High/Middle,0
-122.158334830057456,47.573543721324548,35,189,96,School-Junior High/Middle,Tyee Middle School,Tyee,13630 SE Allen Rd,98006,-122.15833667,47.57354158,10,BELLEVUE,1524059005,152405,9005,School-Junior High/Middle,3283
-122.195691498569673,47.724812473828337,36,504,165571,School-Elementary,Helen Keller Elementary School,Helen Keller,13820 108th Ave NE,98034,-122.19569268,47.72481045,10,LAKE WASHINGTON,2026059105,202605,9105,School-Elementary,0
-122.331977342846898,47.478074314813931,37,1278,151,School-High,John F. Kennedy Catholic High School,John F. Kennedy,140 S 140th St,98168,-122.33197969,47.47807247,20,HIGHLINE,1723049528,172304,9528,School-High,0
-122.326753040283407,47.732702602599517,38,1090,250279,School-High,Lakeside High School,Lakeside High,14050 1st Ave NE,98125,-122.32675423,47.73270082,20,SEATTLE,2832100190,283210,0190,School-High,0
-122.151785597512841,47.562920977396843,39,185,99,School-Elementary,Somerset Elementary School,Somerset,14100 Somerset Blvd SE,98006,-122.15178749,47.56291882,10,BELLEVUE,1524059091,152405,9091,School-Elementary,3789
-122.164941001228186,47.727303382219162,40,509,21187,School-Junior High/Middle,Kamiakin Middle School,Kamiakin,14111 132nd Ave NE,98034,-122.16494214,47.72730131,10,LAKE WASHINGTON,2126059123,212605,9123,School-Junior High/Middle,3922
-121.992150772556172,47.204364476256288,41,6600670,393851,School-College or University,Green River College - Enumclaw Campus,GRC,1414 Griffin Ave,98022,-121.99215308,47.2043628,10,ENUMCLAW,2420069046,242006,9046,School-College or University,0
-122.141551775118586,47.453369196295,42,727,597271,School-Elementary,Fairwood Elementary School,Fairwood,16600 148th Ave SE,98058,-122.14155422,47.45336699,10,KENT,2623059007,262305,9007,School-Elementary,3678
-122.117928642732153,47.63949149247042,43,211,63,School-Elementary,Ardmore Elementary School,Ardmore,16616 NE 32nd St,98008,-122.11793015,47.6394893,10,BELLEVUE,2425059033,242505,9033,School-Elementary,3633
-122.111364197537895,47.452597341988081,44,733,602982,School-Elementary,Maple Valley Christian Elementary School,Maple Valley Christian,16700 174th Ave SE,98058,-122.11136664,47.45259506,20,KENT,2523059050,252305,9050,School-Elementary,0
-122.116486939176539,47.675439916946559,45,635,12151,School-Elementary,Redmond Elementary School,Redmond,16800 NE 80th St,98052,-122.11648828,47.67543775,10,LAKE WASHINGTON,0125059048,012505,9048,School-Elementary,2289
-122.168547653427368,47.451486315124804,46,740,898496,School-Elementary,Renton Park Elementary School,Renton Park,16828 128th Ave SE,98058,-122.16855012,47.45148418,10,RENTON,2823059084,282305,9084,School-Elementary,3521
-122.309285395896055,47.613373816469036,47,6600227,447450,School-Alternative,Seattle World School,Seattle World,1700 E Union St,98122,-122.30928711,47.61337197,10,SEATTLE,7234600635,723460,0635,School-Alternative,0
-122.197492290513424,47.517430636401201,48,704,892489,School-Elementary,Kennydale Elementary School,Kennydale,1700 NE 28th St,98056,-122.19749441,47.51742857,10,RENTON,3342103310,334210,3310,School-Elementary,2597
-122.113197863462389,47.691730671086773,49,617,12147,School-Elementary,Horace Mann Elementary School,Horace Mann,17001 NE 104th St,98052,-122.11319913,47.6917285,10,LAKE WASHINGTON,3626059017,362605,9017,School-Elementary,0
-122.114074052982374,47.436513144940058,50,6600248,12202,School-Junior High/Middle,Northwood Middle School,Northwood,17007 SE 184th St,98058,-122.11407659,47.43651088,10,KENT,3623059009,362305,9009,School-Junior High/Middle,4485
-122.306611314537804,47.588247944411791,51,6600715,1132055,School-Alternative,Hamlin Robinson School,HRS,1701 20th Ave S,98144,-122.30661314,47.58824609,20,SEATTLE,7548300835,754830,0835,School-Alternative,
-122.115426486397283,47.483523672843532,52,746,573184,School-Elementary,Briarwood Elementary School,Briarwood,17020 SE 134th St,98059,-122.11542875,47.4835214,10,ISSAQUAH,1323059026,132305,9026,School-Elementary,3440
-122.113933829423004,47.353855789587094,53,562,663186,School-Elementary,Covington Elementary School,Covington,17070 SE Wax Rd,98042,-122.11393684,47.35385353,10,KENT,3622059081,362205,9081,School-Elementary,3388
-122.151747133790664,47.752317271024538,54,790,21198,School-K-12,Bellevue Christian School,Bellevue Christian,17110 140th Ave NE,98072,-122.15174814,47.7523152,20,NORTHSHORE,1026059076,102605,9076,School-K-12,0
-122.139798000948616,47.751996820953117,55,801,202643,School-Elementary,Hollywood Hill Elementary School,Hollywood Hill,17110 148th Ave NE,98072,-122.139799,47.75199473,10,NORTHSHORE,1126059032,112605,9032,School-Elementary,4124
-122.053070232958831,47.625596306535641,56,655,12222,School-Elementary,Margaret Mead Elementary School,Margaret Mead,1725 216th Ave NE,98074,-122.05307177,47.62559398,10,LAKE WASHINGTON,2825069055,282506,9055,School-Elementary,4096
-122.106417082215273,47.694921366115643,57,632,568136,School-High,Redmond High School,Redmond High,17272 NE 104th St,98052,-122.10641832,47.69491919,10,LAKE WASHINGTON,3626059014,362605,9014,School-High,3528
-122.350196996328734,47.754699449575881,58,1156,16155,School-High,Shorewood High School,Shorewood,17300 Fremont Ave N,98133,-122.35019809,47.75469775,10,SHORELINE,0726049134,072604,9134,School-High,3921
-122.353651597535602,47.756726430833126,59,1157,184012,School-Elementary,St. Luke School,St. Luke,17533 Saint Luke Pl N,98133,-122.35365269,47.75672475,20,SHORELINE,6190700150,619070,0150,School-Elementary,0
-122.32292875082392,47.441072195956544,60,6600614,144,School-Alternative,Puget Sound Skills Center,Skills Center,18010 8th Ave S,98148,-122.3229313,47.44107035,10,HIGHLINE,3223049284,322304,9284,School-Alternative,0
-122.098172008504918,47.702226973678357,61,6600123,12141,School-Elementary,Albert Einstein Elementary School,Albert Einstein,18025 NE 116th St  ,98052,-122.09817321,47.70222479,10,LAKE WASHINGTON,3126069130,312606,9130,School-Elementary,0
-122.122184216143111,47.44042714416571,62,742,595133,School-Elementary,Ridgewood Elementary School,Ridgewood,18030 162nd Pl SE,98058,-122.12218673,47.44042489,10,KENT,3523059030,352305,9030,School-Elementary,4293
-122.313852086818727,47.760896583572176,63,1239,16162,School-Elementary,St. Mark Parish School,St. Mark,18033 15th Pl NE,98155,-122.31385316,47.76089483,20,SHORELINE,6163900550,616390,0550,School-Elementary,0
-122.380511783191139,47.676890325249012,64,6600216,321810,School-Alternative,Salmon Bay K-8 School ,Salmon Bay,1810 NW 65th St,98117,-122.38051322,47.67688863,10,SEATTLE,7518503620,751850,3620,School-Alternative,1796
-122.336525982562648,47.740778279111424,65,1153,16150,School-Elementary,Parkwood Elementary School,Parkwood,1815 N 155th St,98133,-122.33652713,47.74077652,10,SHORELINE,1826049062,182604,9062,School-Elementary,3489
-122.337905147431641,47.726232980852913,66,1138,12274,School-High,Edward S. Ingraham High School,Ingraham,1819 N 135th St,98133,-122.33790636,47.72623122,10,SEATTLE,1926049321,192604,9321,School-High,3276
-122.028829982541325,47.357668298218819,67,580,1228969,School-High,Tahoma High School,Tahoma High,23499 SE Tahoma Way,98038,-122.02883296,47.35766584,10,TAHOMA,3422069114,342206,9114,School-High,0
-122.191445174216256,47.759773012649205,68,2142,174096,School-College or University,Cascadia College,Cascadia,18225 Campus Way NE,98011,-122.19144618,47.75977103,10,NORTHSHORE,0526059057,052605,9057,School-College or University,0
-122.157110030582743,47.438023305095498,69,720,599695,School-Elementary,Carriage Crest Elementary School,Carriage Crest,18235 140th Ave SE,98058,-122.15711257,47.43802114,10,KENT,3423059023,342305,9023,School-Elementary,4353
-122.282483409224696,47.439158558336388,70,1317,12230,School-Elementary,Bow Lake Elementary School,Bow Lake,18237 42nd Ave S,98188,-122.28248597,47.43915666,10,HIGHLINE,3423049094,342304,9094,School-Elementary,2982
-122.217806842841881,47.292201547897555,71,61,707806,School-Junior High/Middle,Olympic Middle School,Olympic,1825 K St SE,98002,-122.21781022,47.29219953,10,AUBURN,1921059192,192105,9192,School-Junior High/Middle,3169
-122.273694031013051,47.438456158064845,72,1331,400677,School-K-12,Seattle Christian School,Seattle Christian,18301 Military Rd S,98188,-122.27369659,47.43845425,20,HIGHLINE,3423049030,342304,9030,School-K-12,0
-122.273694031013051,47.438456158064845,73,6600252,400677,School-Elementary,Seattle Christian Elementary School,Seattle Christian,18301 Military Rd S,98188,-122.27369659,47.43845425,20,HIGHLINE,3423049030,342304,9030,School-Elementary,0
-122.325081521264579,47.437627366719795,74,6600615,755385,School-Alternative,Choice Academy,Choice Academy,18367 8th Ave S,98148,-122.32508409,47.43762553,10,HIGHLINE,3223049070,322304,9070,School-Alternative,1539
-122.187275937917889,47.434818348836153,75,6600552,767285,School-Elementary,Benson Hill Elementary School,Benson Hill,18665 116th Ave SE,98058,-122.1872785,47.43481626,10,RENTON,3223059149,322305,9149,School-Elementary,3587
-122.336104534297192,47.752897972965101,76,6600328,139783,School-Other Facility,Shoreline Childrens Center,Shoreline Childrens Center,1900 N 170th St,98133,-122.33610564,47.75289623,10,SHORELINE,3073500050,307350,0050,School-Other Facility,0
-122.357920533903908,47.562679609531799,77,2303,466180,School-Alternative,Pathfinder K-8 School,Pathfinder,1901 SW Genesee St,98106,-122.35792248,47.56267782,10,SEATTLE,1324039116,132403,9116,School-Alternative,0
-122.051048257995078,47.76636401133905,78,6600205,21195,School-Junior High/Middle,Timbercrest Jr High,Timbercrest,19115 215th Way NE,98077,-122.05104907,47.76636186,10,NORTHSHORE,0426069010,042606,9010,School-Junior High/Middle,4516
-122.245791885013915,47.767818925799695,79,253,5930,School-Elementary,Kenmore Elementary School,Kenmore,19121 71st Ave NE,98028,-122.24579292,47.76781706,10,NORTHSHORE,0126049010,012604,9010,School-Elementary,2993
-122.358921704064301,47.636827089481898,80,1048,411652,School-Junior High/Middle,Worth McClure Middle School,Worth McClure,1915 1st Ave W,98119,-122.35892332,47.63682533,10,SEATTLE,1794501220,179450,1220,School-Junior High/Middle,3517
-122.116325414994151,47.767565444627408,81,802,21188,School-Junior High/Middle,Leota Jr High School,Leota,19301 168th Ave NE,98072,-122.1163263,47.76756339,10,NORTHSHORE,0126059053,012605,9053,School-Junior High/Middle,3790
-122.362990890982587,47.769659080811415,82,1289,16144,School-Junior High/Middle,Einstein Middle School,Einstein,19343 3rd Ave NW,98177,-122.36299195,47.76965747,10,SHORELINE,0126039050,012603,9050,School-Junior High/Middle,3674
-122.354174358730774,47.769428663858854,83,1142,154730,School-K-12,Kings Schools,Kings ,19351 Kings Garden Dr N,98133,-122.35417542,47.76942704,20,SHORELINE,0626049016,062604,9016,School-K-12,0
-122.182796142928083,47.428318582006199,84,6600251,8588,School-Elementary,Glenridge Elementary School,Glenridge,19405 120th Ave SE,98031,-122.18279874,47.42831648,10,KENT,7932000015,793200,0015,School-Elementary,4489
-122.197711099343792,47.769656856618695,85,255,114,School-Elementary,Maywood Hills Elementary School,Maywood Hills,19510 104th Ave NE,98011,-122.19771207,47.76965493,10,NORTHSHORE,0526059178,052605,9178,School-Elementary,3344
-122.202307329068674,47.769670370277126,86,249,173414,School-Elementary,Heritage Christian Academy,Heritage Christian,19527 104th Ave NE,98011,-122.2023083,47.76966845,20,NORTHSHORE,0526059080,052605,9080,School-Elementary,0
-122.372710428785183,47.771807022968957,87,1301,16157,School-Elementary,Syre Elementary School,Syre ,19545 12th Ave NW,98177,-122.37271148,47.77180545,10,SHORELINE,0126039400,012603,9400,School-Elementary,3527
-122.079241050088996,47.359178133649834,88,6600485,172,School-Junior High/Middle,Cedar Heights Middle School,Cedar Heights,19640 SE 272nd St  ,98042,-122.07924402,47.35917579,10,KENT,2922069030,292206,9030,School-Junior High/Middle,4440
-122.152213003076824,47.42574459423647,89,574,8587,School-Elementary,Lake Youngs Elementary School,Lake Youngs,19660 142nd Ave SE,98042,-122.15221561,47.42574242,10,KENT,0322059190,032205,9190,School-Elementary,3550
-122.224421957272668,47.770787656401779,90,6600331,176176,School-Alternative,Soreson Early Childhood Center,Soreson,19705 88th Ave NE ,98011,-122.22442295,47.77078577,10,NORTHSHORE,0626059101,062605,9101,School-Alternative,0
-122.162180811849964,47.771090531074591,91,808,83536,School-High,Woodinville High School,Woodinville,19819 136th Ave NE,98072,-122.16218173,47.77108856,10,NORTHSHORE,0326059012,032605,9012,School-High,4208
-122.327078608974205,47.424795922919522,92,1215,389688,School-Elementary,North Hill Elementary School,North Hill,19835 8th Ave S,98148,-122.32708125,47.42479409,10,HIGHLINE,0522049087,052204,9087,School-Elementary,2983
-122.222248855276078,47.30818454713966,93,70,719556,School-Elementary,Washington Elementary School,Washington,20 E St NE,98002,-122.22225214,47.30818254,10,AUBURN,1821059060,182105,9060,School-Elementary,2326
-122.201793679637134,47.481158071666854,94,6600704,585462,School-High,Renton Prep Christian School,Renton Prep,200 Mill Ave S,98057,-122.20179599,47.48115601,20,RENTON,0007200050,000720,0050,School-High,
-122.208478456251584,47.421127804954033,95,402,8589,School-Elementary,Springbrook Elementary School,Springbrook,20035 100th Ave SE,98031,-122.2084811,47.42112576,10,KENT,0622059059,062205,9059,School-Elementary,3677
-122.351773326460687,47.63293301662906,96,926,412420,School-Elementary,John Hay Elementary School,John Hay,201 Garfield St,98109,-122.35177496,47.63293125,10,SEATTLE,0809000005,080900,0005,School-Elementary,2063
-122.338859084335112,47.619967557600205,97,6600667,443299,School-Junior High/Middle,Morningside Academy,Morningside,201 Westlake Ave N,98109,-122.33886077,47.61996576,20,SEATTLE,1986200085,198620,0085,School-Junior High/Middle,0
-121.973165597211491,47.591219905387881,98,6600604,89021,School-Elementary,Cascade Ridge Elementary School,Cascade Ridge,2020 Trossachs Blvd SE,98075,-121.97316723,47.59121742,10,ISSAQUAH,8691301385,869130,1385,School-Elementary,4565
-122.2930978311053,47.420132934706693,99,6600477,400964,School-Elementary,Madrona Elementary School ,Madrona,20301 32nd Ave S,98198,-122.2931005,47.42013105,10,HIGHLINE,3445000085,344500,0085,School-Elementary,3278
-122.07007196354887,47.694005450035839,100,657,12144,School-Alternative,The Overlake School,Overlake,20301 NE 108th St,98053,-122.07007318,47.69400321,20,LAKE WASHINGTON,1243100185,124310,0185,School-Alternative,0
-122.254021148817003,47.776194856920306,101,1225,246640,School-Junior High/Middle,Kenmore Jr High School,Kenmore Jr High,20323 66th Ave NE,98028,-122.25402216,47.77619304,10,NORTHSHORE,0114100372,011410,0372,School-Junior High/Middle,3345
-122.459813889362337,47.421598431891788,102,6600622,21173,School-Other Facility,Administration Center-Vashon Island,Admin,20414 Vashon Hwy SW,98070,-122.45981655,47.4215968,10,VASHON ISLAND,0522039032,052203,9032,School-Other Facility,0
-121.996577080760304,47.21057017659173,103,291,201,School-Elementary,Byron Kibler Elementary School,Byron Kibler,2057 Kibler Ave,98022,-121.99657958,47.21056836,10,ENUMCLAW,2320069002,232006,9002,School-Elementary,2980
-122.063760500692482,47.594701352773491,104,6600674,1010038,School-Elementary,Creekside Elementary School,Creekside,20777 SE 16th St,98075,-122.06376219,47.59469903,10,ISSAQUAH,0524069014,052406,9014,School-Elementary,5201
-122.304149791180023,47.597956289056462,105,1189,449912,School-Junior High/Middle,Washington Middle School,Washington,2101 S Jackson St,98144,-122.30415158,47.59795443,10,SEATTLE,3646100540,364610,0540,School-Junior High/Middle,4064
-122.305783935476569,47.3810299398966,106,1366,382434,School-Elementary,Parkside Elementary School,Parkside,2104 S 247th St,98198,-122.30578682,47.38102809,10,HIGHLINE,2122049007,212204,9007,School-Elementary,3335
-122.297895203475576,47.31917032959236,107,6600681,979436,School-Alternative,Federal Way Open Doors,Open Doors,31453 28th Ave S,98003,-122.29789843,47.31916848,10,FEDERAL WAY,921049054,92104,9054,School-Alternative,0
-122.057262532737596,47.331281211779974,108,2174,8613,School-High,Kentlake High School,Kentlake,21401 SE Falcon Way,98042,-122.05726567,47.33127883,10,KENT,0421069087,042106,9087,School-High,4492
-122.322684739964899,47.40489471280975,109,1358,390877,School-Elementary,Des Moines Elementary School,Des Moines,22001 9th Ave S,98198,-122.32268749,47.40489288,10,HIGHLINE,0822049018,082204,9018,School-Elementary,2418
-122.04304923380991,47.741435528886832,110,798,568938,School-Elementary,East Ridge Elementary School,East Ridge,22150 NE 156th Pl,98077,-122.0430502,47.74143329,10,NORTHSHORE,1626069002,162606,9002,School-Elementary,4379
-122.287700949819083,47.400133781004541,111,1360,12232,School-K-12,Kent Mountain View Academy,Mountain View,22420 Military Rd S,98198,-122.28770373,47.4001319,20,KENT,1522049125,152204,9125,School-K-12,0
-122.303412366375881,47.399909131515656,112,1362,390217,School-Elementary,Midway Elementary School,Midway,22447 24th Ave S,98198,-122.30341514,47.39990727,10,HIGHLINE,1622049238,162204,9238,School-Elementary,2984
-122.307850801598391,47.399056294070583,113,1363,386713,School-High,Mount Rainier High School,Mount Rainier,22450 19th Ave S,98198,-122.30785358,47.39905444,10,HIGHLINE,1622049005,162204,9005,School-High,3279
-122.328707316036116,47.466151323326301,114,1212,755357,School-High,Highline High School,Highline,225 S 152nd St,98148,-122.32870973,47.46614948,10,HIGHLINE,2023049020,202304,9020,School-High,2325
-122.051551263379537,47.398278949102604,115,520,620598,School-Elementary,Cedar River Elementary School,Cedar River,22615 Sweeney Rd SE,98038,-122.051554,47.39827654,10,TAHOMA,1622069134,162206,9134,School-Elementary,3937
-122.047131901560505,47.398902150630889,116,532,618725,School-Elementary,Shadow Lake Elementary School,Shadow Lake ,22620 Sweeney Rd SE,98038,-122.04713463,47.39889973,10,TAHOMA,1622069009,162206,9009,School-Elementary,3589
-122.035302147711661,47.684931869907516,117,6600641,365780,School-Elementary,Rosa Parks Elementary School,Rosa Parks,22845 NE Cedar Park Cres,98053,-122.03530338,47.68492957,10,LAKE WASHINGTON,7202310150,720231,0150,School-Elementary,5053
-122.331370617602317,47.580466269731104,118,6600429,473560,School-Other Facility,John Stanford Center (Administration),John Stanford Center,230 S Lander St,98134,-122.33137248,47.58046445,10,SEATTLE,7666205235,766620,5235,School-Other Facility,0
-122.033854605355742,47.589238380786874,119,348,12219,School-Elementary,Discovery Elementary School,Discovery,2300 228th Ave SE,98075,-122.0338563,47.58923599,10,ISSAQUAH,0324069051,032406,9051,School-Elementary,4376
-122.101076691271231,47.388257869074039,120,529,8586,School-Junior High/Middle,Maple View Middle School,Maple View Middle,18200 SE 240th ST,98042,-122.1010795,47.38825558,10,TAHOMA,1822069011,182206,9011,School-Junior High/Middle,0
-122.349192063714938,47.612289839592293,121,1490,837269,School-College or University,Art Institute of Seattle,Art Institute,2323 Elliott Ave,98121,-122.34919379,47.61228806,10,SEATTLE,6780950000,678095,0000,School-College or University,0
-122.180339737524548,47.391205942039221,122,384,8581,School-Junior High/Middle,Meridian Middle School,Meridian,23480 120th Ave SE,98031,-122.18034255,47.39120383,10,KENT,1622059032,162205,9032,School-Junior High/Middle,3233
-122.025579351577363,47.351609880144501,123,6600555,665240,School-Elementary,Glacier Park Elementary School,Glacier Park,23700 SE 280th St,98038,-122.02558236,47.35160742,10,TAHOMA,3422069020,342206,9020,School-Elementary,4453
-122.02089435322624,47.628719490484443,124,648,12218,School-Elementary,Christa McAuliffe Elementary School,Christa McAuliffe,23823 NE 22nd St,98074,-122.02089585,47.62871711,10,LAKE WASHINGTON,2725069102,272506,9102,School-Elementary,0
-122.328909495727189,47.676353705430131,125,845,12303,School-Elementary,Green Lake Elementary School,Green Lake,2400 N 65th St,98103,-122.32891093,47.67635191,10,SEATTLE,9528104870,952810,4870,School-Elementary,2061
-122.302980303367178,47.736425156471448,126,1241,16168,School-K-12,Shoreline Christian School,Shoreline Christian,2400 NE 147th St,98155,-122.30298147,47.73642333,20,SHORELINE,1626049049,162604,9049,School-K-12,0
-122.300220289585866,47.389780483246689,127,1359,382215,School-College or University,Highline College,Highline College,2400 S 240th St,98198,-122.30022312,47.38977862,10,HIGHLINE,1622049016,162204,9016,School-College or University,0
-122.299846115747286,47.590959456514042,128,1169,452716,School-Elementary,Thurgood Marshall Elementary School,Thurgood Marshall,2401 S Irving St,98144,-122.29984793,47.59095759,10,SEATTLE,9344400300,934440,0300,School-Elementary,2141
-122.198658930708632,47.457818199229656,129,669,593856,School-Junior High/Middle,Nelson Middle School,Nelson,2403 Jones Ave S,98055,-122.19866137,47.45781613,10,RENTON,2923059061,292305,9061,School-Junior High/Middle,0
-122.30148770056897,47.332569151873038,130,106,2365,School-Elementary,Wildwood Elementary School,Wildwood,2405 S 300th St,98003,-122.30149085,47.3325673,10,FEDERAL WAY,0421049167,042104,9167,School-Elementary,3583
-122.304220841346478,47.640634442585331,131,944,420683,School-Elementary,Montlake Elementary School,Montlake,2409 22nd Ave E,98112,-122.30422244,47.64063259,10,SEATTLE,6788200735,678820,0735,School-Elementary,2322
-122.300867371047474,47.608349687142642,132,2352,433942,School-Alternative,Nova High School,Nova,2410 E Cherry St,98122,-122.30086911,47.60834783,10,SEATTLE,0519000290,051900,0290,School-Alternative,3868
-122.191386303337381,47.632148868340543,133,114,65,School-Elementary,Bellevue Montessori School,Bellevue Montessori,2411 112th Ave NE,98004,-122.1913879,47.63214681,20,BELLEVUE,2025059182,202505,9182,School-Elementary,0
-122.017262675506231,47.618670189447137,134,652,12221,School-Junior High/Middle,Inglewood Middle School,Inglewood,24120 NE 8th St,98074,-122.01726422,47.61866779,10,LAKE WASHINGTON,2725069065,272506,9065,School-Junior High/Middle,4386
-122.047045177949244,47.383869658777293,135,527,9261,School-Elementary,Lake Wilderness Elementary School,Lake Wilderness,24216 Witte Rd SE,98038,-122.047048,47.38386724,10,TAHOMA,2122069054,212206,9054,School-Elementary,3286
-122.015120639967662,47.407608469318994,136,533,620377,School-Elementary,Tahoma Elementary School,Tahoma Elementary,24425 SE 216th St,98038,-122.01512331,47.40760597,10,TAHOMA,1122069027,112206,9027,School-Elementary,3341
-122.330845189696916,47.581923713949408,137,6600703,765619,School-Alternative,Skills Center High School,Skills Center,2445 3rd Ave S,98134,-122.33084705,47.58192189,10,SEATTLE,7666205235,766620,5235,School-Alternative,
-122.282154142561225,47.38054765252442,138,439,615649,School-Elementary,Sunnycrest Elementary School,Sunnycrest,24629 42nd Ave S,98032,-122.28215703,47.38054576,10,FEDERAL WAY,2222049146,222204,9146,School-Elementary,3567
-122.324176704259017,47.642286058093148,139,6600212,837474,School-Alternative,TOPS K-8 School (The Option Program at Seward),TOPS,2500 Franklin Ave E,98102,-122.32417829,47.64228424,10,SEATTLE,1959700005,195970,0005,School-Alternative,1579
-122.165914126317716,47.514265697130035,140,715,732782,School-Elementary,Sierra Heights Elementary School,Sierra Heights,2501 Union Ave NE,98059,-122.16591625,47.51426355,10,RENTON,0423059069,042305,9069,School-Elementary,3668
-122.005691569626435,47.579902902986575,141,2212,2412,School-Junior High/Middle,Beaver Lake Middle School,Beaver Lake,25025 SE 32nd St,98029,-122.0056933,47.57990044,10,ISSAQUAH,1124069091,112406,9091,School-Junior High/Middle,4460
-122.389009548993016,47.6863854724973,142,1011,12292,School-Elementary,Loyal Heights Elementary School,Loyal Heights,2511 NW 80th St,98117,-122.38901094,47.6863838,10,SEATTLE,4443801580,444380,1580,School-Elementary,0
-122.10358246712893,47.375852370216514,143,564,666111,School-Elementary,Crestwood Elementary School,Crestwood,25225 180th Ave SE,98042,-122.10358535,47.37585008,10,KENT,2422059063,242205,9063,School-Elementary,4126
-122.300002984638567,47.335716991854007,144,6600142,695180,School-K-12,Holy Innocents School of the Northwest,Holy Innocents,2530 S 298th St,98003,-122.30000612,47.33571514,20,FEDERAL WAY,7683800032,768380,0032,School-K-12,0
-122.300691733899129,47.7730846088117,145,6600298,16145,School-Other Facility,Aldercrest Learning Center,Aldercrest Learning Center,2545 NE 200th St,98155,-122.30069277,47.77308288,10,SHORELINE,4022900853,402290,0853,School-Other Facility,0
-122.119310297828164,47.370023938119452,146,571,662995,School-High,Kentwood High School,Kentwood,25800 164th Ave SE,98042,-122.11931322,47.37002169,10,KENT,2522059006,252205,9006,School-High,4128
-122.366191029086963,47.528890711330362,147,6600437,509368,School-High,Chief Sealth International High School,Chief Sealth,2600 SW Thistle St ,98126,-122.36619312,47.52888891,10,SEATTLE,3624039032,362403,9032,School-High,3096
-122.366052898593423,47.531352180495162,148,6600702,1005283,School-Junior High/Middle,David T. Denny International Middle School,David T. Denny Intl,2601 SW Kenyon St,98126,-122.36605498,47.53135038,10,SEATTLE,3624039032,362403,9032,School-Junior High/Middle,
-122.197441463352817,47.456404303379003,149,687,12199,School-Alternative,Renton Academy,Renton Academy,2607 Jones Ave S,98055,-122.19744391,47.45640223,10,RENTON,2923059061,292305,9061,School-Alternative,0
-122.350385664957827,47.643631686765644,150,932,422342,School-Elementary,Seattle Country Day School,Seattle Country Day,2619 4th Ave N,98109,-122.35038725,47.64362992,20,SEATTLE,1929300110,192930,0110,School-Elementary,0
-122.102875000174905,47.366666866528512,151,6600689,675501,School-High,Rainier Christian High School,Rainier Christian,26201 180th Ave SE,98042,-122.10287793,47.36666458,20,KENT,2522059092,252205,9092,School-High,
-122.387002927298909,47.57989805396474,152,995,470929,School-Elementary,Lafayette Elementary School,Lafayette,2645 California Ave SW,98116,-122.38700479,47.57989631,10,SEATTLE,9277200005,927720,0005,School-Elementary,2733
-122.08566544113873,47.364758207614585,153,560,666235,School-Elementary,Cedar Valley Elementary School,Cedar Valley,26500 Timberlane Way SE,98042,-122.08566838,47.36475588,10,KENT,3022069050,302206,9050,School-Elementary,3676
-122.281827868316711,47.36280307804266,154,441,8606,School-Junior High/Middle,Totem MIddle School,Totem,26630 40th Ave S,98032,-122.28183085,47.36280119,10,FEDERAL WAY,2722049152,272204,9152,School-Junior High/Middle,3431
-121.982123873964767,47.747195179702892,155,276,193,School-Elementary,Cherry Valley Elementary School,Cherry Valley,26701 NE Cherry Valley Rd,98019,-121.98212477,47.74719287,10,RIVERVIEW,1326069028,132606,9028,School-Elementary,3101
-122.094474171852767,47.360372214680289,156,569,170,School-Elementary,Jenkins Creek Elementary School,Jenkins Creek,26915 186th Ave SE,98042,-122.09447714,47.36036991,10,KENT,3022069029,302206,9029,School-Elementary,4301
-122.128468204621527,47.634431228761798,157,10000021,98990,School-Elementary,Eton School,Eton,2701 BelRed Rd,98008,-122.12846975,47.63442906,10,BELLEVUE,0673100096,067310,0096,School-Elementary,0
-122.297039239277908,47.599536898367838,158,6600719,838330,School-Junior High/Middle,Seattle Girls School,Seattle Girls,2706 S Jackson St,98144,-122.29704102,47.59953503,20,SEATTLE,7833800025,783380,0025,School-Junior High/Middle,
-122.297730323120291,47.742242592398235,159,1219,16167,School-Elementary,Briarcrest Elementary School,Briarcrest,2715 NE 158th St,98155,-122.29773147,47.74224075,10,SHORELINE,1199100005,119910,0005,School-Elementary,0
-122.182337670288248,47.495498103721985,160,1302,586328,School-Elementary,Highlands Elementary School,Highlands,2720 NE 7th St,98056,-122.18233989,47.49549599,10,RENTON,7227502510,722750,2510,School-Elementary,2640
-122.2971139472684,47.690550571973034,161,6600006,347544,School-Elementary,Wedgewood Elementary School,Wedgewood,2720 NE 85th St ,98115,-122.29711532,47.69054872,10,SEATTLE,0439000615,043900,0615,School-Elementary,3026
-122.367966949986055,47.498734494210254,162,1203,134,School-Elementary,Shorewood Elementary School,Shorewood,2725 SW 116th St,98146,-122.36796918,47.49873268,10,HIGHLINE,1842000190,184200,0190,School-Elementary,2842
-122.15193933714265,47.353784259819662,163,567,660039,School-Elementary,Horizon Elementary School,Horizon,27641 144th Ave SE,98042,-122.15194235,47.35378209,10,KENT,3422059036,342205,9036,School-Elementary,4345
-122.195757898272504,47.353353248220017,164,6600277,669375,School-Elementary,Meadow Ridge Elementary School,Meadow Ridge,27710 108th Ave SE,98030,-122.19576093,47.35335118,10,KENT,3222059015,322205,9015,School-Elementary,4465
-122.299580445812055,47.774637132001445,165,6600710,16158,School-Elementary,Cascade K-8 School,Cascade,2800 NE 200th St,98155,-122.29958147,47.77463541,10,SHORELINE,2636900086,263690,0086,School-Elementary,
-122.367856035844355,47.316909316406758,166,319,2380,School-High,Decatur High School,Decatur,2800 SW 320th St,98023,-122.36785927,47.3169076,10,FEDERAL WAY,1221039034,122103,9034,School-High,3766
-122.183768456550979,47.636056231556047,167,168,144130,School-Elementary,The Little School,The Little,2812 116th Ave NE,98004,-122.18377003,47.63605416,20,BELLEVUE,2125059046,212505,9046,School-Elementary,0
-122.296286011004128,47.552261028454289,168,908,499919,School-Elementary,Dearborn Park International Elementary School,Dearborn Park Intl,2820 S Orcas St,98108,-122.296288,47.55225915,10,SEATTLE,7857000410,785700,0410,School-Elementary,3803
-122.086571207303635,47.344631296446188,169,566,699051,School-Elementary,Grass Lake Elementary School,Grass Lake,28700 191st Pl SE,98042,-122.08657427,47.34462898,10,KENT,3122069056,312206,9056,School-Elementary,3708
-122.171871594903919,47.341982351253002,170,2335,681537,School-High,Auburn Mountainview High School,Mountainview,28900 124th Ave SE,98092,-122.17187468,47.34198023,10,AUBURN,0421059051,042105,9051,School-High,5037
-121.952479173676096,47.735631682095814,171,275,192,School-High,Cedarcrest High School,Cedarcrest,29000 NE 150th St,98019,-121.9524801,47.73562933,10,RIVERVIEW,1826079013,182607,9013,School-High,3524
-122.168019214496539,47.340083836053175,172,6600684,773630,School-Elementary,Arthur Jacobsen Elementary School,Arthur Jacobsen,29205 132nd Ave SE,98092,-122.16802231,47.3400817,10,AUBURN,0421059057,042105,9057,School-Elementary,
-122.220773479587479,47.474399112217434,173,6600377,580032,School-Other Facility,Administration Center-Renton,Admin,300 SW 7th St,98057,-122.22077583,47.4743971,10,RENTON,1823059253,182305,9253,School-Other Facility,0
-122.385270448917908,47.5769740076029,174,1003,470930,School-High,West Seattle High School,West Seattle,3000 California Ave SW,98116,-122.38527233,47.57697226,10,SEATTLE,8702100050,870210,0050,School-High,2234
-122.148941300985854,47.58406923755927,175,191,155119,School-College or University,Bellevue College,Bellevue College,3000 Landerholm Cir SE,98007,-122.14894309,47.58406708,10,BELLEVUE,1024059008,102405,9008,School-College or University,0
-122.176754181617881,47.493913677327811,176,714,580177,School-College or University,Renton Technical College,Renton Tech,3000 NE 4th St,98056,-122.17675641,47.49391155,10,RENTON,7227800450,722780,0450,School-College or University,5955
-122.407826505764348,47.577141047685693,177,987,466948,School-Elementary,Alki Elementary School,Alki,3010 59th Ave SW,98116,-122.40782838,47.57713933,10,SEATTLE,0148000064,014800,0064,School-Elementary,2181
-122.338532734294702,47.325537412239854,178,322,2369,School-Elementary,Lake Grove Elementary School,Lake Grove,303 SW 308th St,98023,-122.33853593,47.32553564,10,FEDERAL WAY,0721049180,072104,9180,School-Elementary,3568
-122.101523198366039,47.637353052906228,179,608,12156,School-Elementary,John James Audubon Elementary School,John James Audubon,3045 180th Ave NE,98052,-122.10152471,47.63735083,10,LAKE WASHINGTON,2425059100,242505,9100,School-Elementary,3548
-122.324609364687291,47.327295643892633,180,102,2367,School-Elementary,St. Vincent De Paul School,St. Vincent De Paul,30527 8th Ave S,98003,-122.32461255,47.32729384,20,FEDERAL WAY,0821049005,082104,9005,School-Elementary,0
-122.313940335862071,47.328077350608098,181,81,2368,School-High,Federal Way High School,Federal Way,30611 16th Ave S,98003,-122.31394351,47.32807553,10,FEDERAL WAY,0821049001,082104,9001,School-High,2417
-122.185548819772833,47.327408391199647,182,63,25,School-Junior High/Middle,Rainier Middle School,Rainier,30620 116th Ave SE,98092,-122.18555199,47.3274063,10,AUBURN,0921059123,092105,9123,School-Junior High/Middle,4385
-122.175401091577442,47.32499841553458,183,54,24,School-Elementary,Lea Hill Elementary School,Lea Hill,30908 124th Ave SE,98092,-122.17540428,47.3249963,10,AUBURN,0921059005,092105,9005,School-Elementary,3525
-122.298832899494002,47.319291290496814,184,77,2378,School-Alternative,Truman High School Campus,Truman Campus,31455 28th Ave S,98003,-122.29883613,47.31928944,10,FEDERAL WAY,0921049054,092104,9054,School-Alternative,5163
-122.299735335036544,47.319260671839231,185,6600144,979437,School-K-12,Internet Academy,Internet Academy,31457 28th Ave S,98003,-122.29973856,47.31925882,10,FEDERAL WAY,0921049054,092104,9054,School-K-12,1759
-122.292951629578042,47.621898188039928,186,6600720,442094,School-Elementary,The Valley School,Valley,318 30th Ave E,98112,-122.29295331,47.62189632,20,SEATTLE,9209900590,920990,0590,School-Elementary,
-122.033910032102,47.580921841474421,187,362,12223,School-Junior High/Middle,Pine Lake Middle School,Pine Lake,3200 228th Ave SE,98075,-122.03391177,47.58091944,10,ISSAQUAH,1024069010,102406,9010,School-Junior High/Middle,3879
-122.06703750691436,47.638732737538334,188,6600175,374731,School-Elementary,Elizabeth Blackwell Elementary School,Elizabeth Blackwell,3225 205th Pl NE,98074,-122.06703899,47.63873045,10,LAKE WASHINGTON,8651590010,865159,0010,School-Elementary,4532
-121.907974686384819,47.652343077426522,189,6600696,1008913,School-Alternative,Riverview Learning Center,Riverview,32302 NE 50th St,98014,-121.90797596,47.6523406,10,RIVERVIEW,1625079060,162507,9060,School-Alternative,
-122.393907887607725,47.3092098332788,190,2332,2383,School-Elementary,Green Gables Elementary School,Green Gables,32607 47th Ave SW,98023,-122.39391117,47.30920817,10,FEDERAL WAY,1421039084,142103,9084,School-Elementary,4426
-121.78207972389886,47.496156461990374,191,6600627,26502,School-Alternative,Two Rivers School,Two Rivers,330 Ballarat Ave N,98045,-121.78208144,47.49615375,10,SNOQUALMIE VALLEY,8570900300,857090,0300,School-Alternative,1502
-122.290578825219939,47.573241964223811,192,1178,458345,School-Elementary,John Muir Elementary School-Seattle,John Muir,3301 S Horton St,98144,-122.29058072,47.57324008,10,SEATTLE,1524049002,152404,9002,School-Elementary,2143
-122.292006778105318,47.671515451439859,193,869,349397,School-Elementary,William Cullen Bryant Elementary School,WC Bryant ,3311 NE 60th St,98115,-122.29200824,47.67151359,10,SEATTLE,8827900180,882790,0180,School-Elementary,0
-122.157173074113288,47.280657644136049,194,32,54,School-Elementary,Buena Vista Seventh-day Adventist School,Buena Vista SDA,3320 Academy Dr SE,98092,-122.15717651,47.28065549,20,AUBURN,2721059033,272105,9033,School-Elementary,0
-121.896113799518702,47.569552060417784,195,333,2357,School-Elementary,Fall City Elementary School,Fall City ,33314 SE 42nd St,98024,-121.89611543,47.56954948,10,SNOQUALMIE VALLEY,0943100020,094310,0020,School-Elementary,2222
-122.21298550845556,47.478415013490398,196,688,12194,School-Elementary,St. Anthony Elementary School,St. Anthony,336 Shattuck Ave S,98057,-122.21298784,47.47841298,20,RENTON,7841300035,784130,0035,School-Elementary,0
-122.308728491251614,47.298858379090696,197,1348,871083,School-K-12,Christian Faith School,Christian Faith,33645 20th Ave S,98003,-122.30873183,47.29885655,20,FEDERAL WAY,2121049004,212104,9004,School-K-12,0
-122.354995794385999,47.297573622063275,198,2201,841929,School-Junior High/Middle,Technology Access Foundation Academy at Saghalie,TAFA at Saghalie,33914 19th Ave SW,98023,-122.35499914,47.29757189,10,FEDERAL WAY,1921049033,192104,9033,School-Junior High/Middle,4456
-122.288664766610637,47.622912777401261,199,951,838011,School-K-12,Bush School,Bush,3400 E Harrison St,98112,-122.28866644,47.6229109,20,SEATTLE,6600000120,660000,0120,School-K-12,0
-122.375636109828008,47.538872791586101,200,1116,493520,School-Elementary,Our Lady of Guadalupe Catholic School,Our Lady of Guadalupe,3401 SW Myrtle St,98126,-122.37563816,47.53887101,20,SEATTLE,8123100005,812310,0005,School-Elementary,0
-122.288400796002065,47.277940085609643,201,6600140,636214,School-Junior High/Middle,Sequoyah Middle School,Sequoyah,3425 S 360th St  ,98001,-122.28840425,47.27793822,10,FEDERAL WAY,2721049012,272104,9012,School-Junior High/Middle,5029
-122.390281254884755,47.572981633400317,202,996,459130,School-Junior High/Middle,James Madison Middle School,James Madison,3429 45th Ave SW,98116,-122.39028315,47.57297989,10,SEATTLE,9278300010,927830,0010,School-Junior High/Middle,2435
-122.333389641306553,47.293562790800479,203,93,2390,School-Elementary,Panther Lake Elementary School,Panther Lake,34424 1st Ave S,98003,-122.33339301,47.29356102,10,FEDERAL WAY,2021049110,202104,9110,School-Elementary,3329
-122.322006078044339,47.291223480724717,204,6600546,711102,School-Alternative,Federal Way Public Academy,Federal Way Public Academy,34620 9th Ave S,98003,-122.32200946,47.29122168,10,FEDERAL WAY,9264800050,926480,0050,School-Alternative,1789
-122.1810628763549,47.28962106622442,205,36,58,School-Elementary,Chinook Elementary School,Chinook,3502 Auburn Way S,98092,-122.18106626,47.28961897,10,AUBURN,2121059038,212105,9038,School-Elementary,3439
-122.341086889421391,47.28724434100355,206,6600525,2392,School-Elementary,Enterprise Elementary School,Enterprise,35101 5th Ave SW,98023,-122.34109029,47.28724259,10,FEDERAL WAY,4159200704,415920,0704,School-Elementary,4470
-122.289320466785313,47.693581575952436,207,971,12394,School-Elementary,Our Lady of the Lake School,Our Lady of the Lake,3520 NE 89th St,98115,-122.28932183,47.69357971,20,SEATTLE,6844701005,684470,1005,School-Elementary,0
-122.293389719086633,47.280431277706221,208,13,634289,School-Elementary,Lakeland Elementary School,Lakeland,35827 32nd Ave S,98001,-122.29339316,47.28042943,10,FEDERAL WAY,2821049095,282104,9095,School-Elementary,2841
-122.314374950137903,47.277471222871547,209,2289,842738,School-High,Todd Beamer High School,Todd Beamer,35999 16th Ave S,98003,-122.31437841,47.27746942,10,FEDERAL WAY,2921049025,292104,9025,School-High,4570
-122.378171186857884,47.299869867527271,210,316,2386,School-Elementary,Brigadoon Elementary School,Brigadoon,3601 SW 336th St,98023,-122.37817452,47.29986818,10,FEDERAL WAY,2321039003,232103,9003,School-Elementary,3700
-122.286478643638816,47.549441949942214,211,6600705,483902,School-Elementary,Makkah Islamic School,Makkah Islamic,3613 S Juneau St,98118,-122.28648065,47.54944006,20,SEATTLE,2224049009,222404,9009,School-Elementary,
-122.284904524997572,47.530739828220021,212,1029,512739,School-Elementary,Wing Luke Elementary School,Wing Luke,3701 S Kenyon St ,98118,-122.28490661,47.53073793,10,SEATTLE,4006000598,400600,0598,School-Elementary,3581
-122.377585812626464,47.509701128249276,213,1192,511295,School-Elementary,Arbor Heights Elementary School,Arbor Heights,3701 SW 104th St,98146,-122.37758799,47.50969933,10,SEATTLE,2518400005,251840,0005,School-Elementary,2730
-122.285208312760773,47.453288757769066,214,1326,401620,School-Elementary,McMicken Heights Elementary School,McMicken Heights,3708 S 168th St,98188,-122.28521079,47.45328686,10,HIGHLINE,2723049028,272304,9028,School-Elementary,2734
-121.914325744687801,47.642423612533555,215,273,158,School-Junior High/Middle,Tolt Middle School,Tolt,3740 Tolt Ave,98014,-121.91432707,47.64242113,10,RIVERVIEW,2125079033,212507,9033,School-Junior High/Middle,4318
-122.034189922824012,47.526644452916727,216,6600688,996972,School-Alternative,Gibson Ek,Gibson Ek,379 1st Pl SE,98027,-122.03419193,47.526642,10,ISSAQUAH,3424069028,342406,9028,School-Alternative,
-122.207742587344541,47.576612250611674,217,6600714,191175,School-Alternative,French-American School of Puget Sound,FASPS,3795 E Mercer Way,98040,-122.20774444,47.57661022,20,MERCER ISLAND,2655500115,265550,0115,School-Alternative,
-122.380189329391555,47.552573227257326,218,1108,478384,School-Elementary,Fairmount Park Elementary School,Fairmount Park,3800 SW Findlay St,98126,-122.38019132,47.55257146,10,SEATTLE,9396700035,939670,0035,School-Elementary,3518
-122.163815420902139,47.575547120567158,219,6600668,95,School-Alternative,Puesta Del Sol Elementary,Puesta Del Sol,3810 132nd Ave SE,98006,-122.16381726,47.57554499,10,BELLEVUE,1024059056,102405,9056,School-Alternative,3224
-122.349050466606201,47.654757386266709,220,840,12312,School-Elementary,B.F. Day Elementary School,B.F. Day,3921 Linden Ave N,98103,-122.349052,47.65475562,10,SEATTLE,1931301145,193130,1145,School-Elementary,3717
-122.309937674878668,47.653790553079318,221,10000019,13927,School-Alternative,Ida B. Wells School of Social Justice,Ida B. Wells ,3923 Okanogan Ln NE,98195,-122.30993921,47.65378872,10,SEATTLE,1625049001,162504,9001,School-Alternative,0
-122.281981381772894,47.546321409000825,222,1039,486395,School-Junior High/Middle,Aki Kurose Middle School,Aki Kurose,3928 S Graham St,98118,-122.2819834,47.54631951,10,SEATTLE,3332501090,333250,1090,School-Junior High/Middle,3774
-121.810231070147637,47.523301974463806,223,759,21152,School-Elementary,Snoqualmie Elementary School,Snoqualamie,39801 SE Park St,98065,-121.81023275,47.52329927,10,SNOQUALMIE VALLEY,3224089084,322408,9084,School-Elementary,2288
-122.030799345756975,47.613404104153688,224,6600693,12220,School-Alternative,Renaissance School of Art and Reasoning,Renaissance,400 228th Ave NE,98074,-122.03080092,47.61340173,10,LAKE WASHINGTON,3425069021,342506,9021,School-Alternative,
-122.301826638182945,47.605129183779333,225,1064,762595,School-High,James A. Garfield High School,Garfield,400 23rd Ave,98122,-122.30182839,47.60512732,10,SEATTLE,6840701230,684070,1230,School-High,2306
-121.779266208842046,47.49404415248695,226,594,903935,School-Elementary,North Bend Elementary School,North Bend,400 E 3rd St,98045,-121.77926792,47.49404147,10,SNOQUALMIE VALLEY,1023089192,102308,9192,School-Elementary,2287
-122.211888511057566,47.481746077965546,227,683,12193,School-High,Renton High School,Renton,400 S 2nd St,98057,-122.21189082,47.48174404,10,RENTON,0007200060,000720,0060,School-High,2475
-122.305312281419134,47.655257071445966,228,1346,13871,School-College or University,University of Washington-HUB,UW-HUB,4001 E Stevens Way NE,98195,-122.30531381,47.65525523,10,SEATTLE,1625049001,162504,9001,School-College or University,0
-122.305308302219004,47.655259864859211,229,2746,13871,School-College or University,University of Washington,UW,4001 E Stevens Way NE,98195,-122.30530983,47.65525802,10,SEATTLE,1625049001,162504,9001,School-College or University,0
-122.32531490330561,47.707977675845584,230,6600228,839232,School-Alternative,Middle College High School at Northgate Mall,Middle College at Northgate,401 NE Northgate Way,98125,-122.3253162,47.70797589,10,SEATTLE,2926049285,292604,9285,School-Alternative,1547
-122.328621302922045,47.46653633794994,231,6600612,755358,School-Other Facility,Highline Performing Arts Center,Highline Arts,401 S 152nd St,98148,-122.32862371,47.46653449,10,HIGHLINE,2023049020,202304,9020,School-Other Facility,0
-122.234563995280823,47.308616715659696,232,17,39,School-High,West Auburn High School,West Auburn,401 W Main St,98001,-122.23456728,47.30861474,10,AUBURN,4463400005,446340,0005,School-High,2702
-122.282828219771176,47.360311541698749,233,438,680003,School-Elementary,Star Lake Elementary School,Star Lake,4014 S 270th St,98032,-122.28283122,47.36030966,10,FEDERAL WAY,2722049112,272204,9112,School-Elementary,3160
-122.390220252446596,47.656590323168842,234,1376,429769,School-Elementary,Lawton Elementary School,Lawton,4017 26th Ave W,98199,-122.39022178,47.65658863,10,SEATTLE,0369000400,036900,0400,School-Elementary,2183
-122.340653568292225,47.485656261897226,235,1197,149,School-Elementary,Hazel Valley Elementary School,Hazel Valley,402 SW 132nd St,98146,-122.34065587,47.48565443,10,HIGHLINE,1823049087,182304,9087,School-Elementary,2699
-122.223237614327758,47.573723106792919,236,6600383,9273,School-Elementary,Northwood Elementary School,Northwood,4030 86th Ave SE,98040,-122.22323949,47.57372111,10,MERCER ISLAND,1824059006,182405,9006,School-Elementary,0
-122.28460862468097,47.70707457558084,237,1086,273294,School-Elementary,John Rogers Elementary School,John Rogers ,4030 NE 109th St,98125,-122.28460993,47.7070727,10,SEATTLE,2726049114,272604,9114,School-Elementary,2975
-122.284815613715793,47.334218228773999,238,5,17,School-Elementary,Camelot Elementary School,Camelot,4041 S 298th St,98001,-122.28481876,47.33421635,10,FEDERAL WAY,0321049061,032104,9061,School-Elementary,3547
-122.283385029216603,47.565905912395856,239,2327,474750,School-Elementary,Hawthorne Elementary School,Hawthorne,4100 39th Ave S,98118,-122.28338696,47.56590402,10,SEATTLE,7950302375,795030,2375,School-Elementary,4248
-122.38454613169209,47.565039528326523,240,436,464131,School-High,St. Christopher Academy,St. Christopher,4100 SW Genesee St,98116,-122.38454806,47.56503777,20,SEATTLE,0952002655,095200,2655,School-High,0
-122.384546050051398,47.565036787397446,241,1000,464131,School-High,Seattle Lutheran High School,Seattle Lutheran,4100 SW Genesee St,98116,-122.38454798,47.56503503,20,SEATTLE,0952002655,095200,2655,School-High,0
-122.223751842570053,47.572647464254523,242,6600342,194254,School-Other Facility,Mot Office Building,Mot,4120 86th Ave SE,98040,-122.22375373,47.57264546,10,MERCER ISLAND,1824059045,182405,9045,School-Other Facility,0
-122.231106969250121,47.571633252160446,243,559,192040,School-Elementary,West Mercer Elementary School,West Mercer,4141 81st Ave SE,98040,-122.23110886,47.57163127,10,MERCER ISLAND,9365700100,936570,0100,School-Elementary,3433
-122.385019313250183,47.565419699107949,244,994,470501,School-Elementary,Holy Rosary School,Holy Rosary,4142 42nd Ave SW,98116,-122.38502124,47.56541795,20,SEATTLE,0952002500,095200,2500,School-Elementary,0
-122.35352779574346,47.713917067819963,245,1130,12392,School-Elementary,Christ the King School,Christ the King,415 N 117th St,98133,-122.35352907,47.71391534,20,SEATTLE,6140100225,614010,0225,School-Elementary,0
-122.22347413047595,47.571351180768538,246,6600344,192046,School-Other Facility,Administration Center-Mercer Island,Admin,4160 86th Ave SE,98040,-122.22347602,47.57134918,10,MERCER ISLAND,1824059005,182405,9005,School-Other Facility,0
-122.235136941810666,47.384492572406899,247,6600671,891662,School-College or University,Green River College - Kent Campus,GRC,417 Ramsay Way ,98032,-122.2351398,47.38449059,10,KENT,7142000000,714200,0000,School-College or University,0
-121.987510185727572,47.223105306720761,248,6600382,392659,School-Junior High/Middle,Thunder Mountain Middle School,Thunder Mountain,42018 264th Ave SE,98022,-121.98751297,47.22310338,10,ENUMCLAW,1320069010,132006,9010,School-Junior High/Middle,4550
-122.279108990447895,47.550660146513813,249,1041,481274,School-Elementary,St. Edward School,St. Edward,4212 S Mead St,98118,-122.27911099,47.55065824,20,SEATTLE,3330501325,333050,1325,School-Elementary,0
-122.037559367893948,47.646722702148956,250,654,12138,School-Elementary,Louisa May Alcott School,Louisa May Alcott,4213 228th Ave NE,98053,-122.03756079,47.64672037,10,LAKE WASHINGTON,1625069113,162506,9113,School-Elementary,0
-122.279995567493273,47.474660489212596,251,1272,21155,School-High,Foster High School,Foster,4242 S 144th St,98168,-122.27999793,47.47465858,10,TUKWILA,1523049108,152304,9108,School-High,2848
-122.278973669212249,47.34422985449072,252,15,27,School-High,Thomas Jefferson High School,Thomas Jefferson,4248 S 288th St,98001,-122.27897676,47.34422796,10,FEDERAL WAY,3422049027,342204,9027,School-High,3584
-122.137869768566972,47.570166542329602,253,174,97,School-Elementary,Eastgate Elementary School,Eastgate,4255 153rd Ave SE,98006,-122.13787162,47.57016436,10,BELLEVUE,2203500575,220350,0575,School-Elementary,3036
-122.201029845080384,47.690055151473572,254,467,8626,School-Junior High/Middle,Kirkland Middle School,Kirkland,430 18th Ave,98033,-122.20103118,47.69005313,10,LAKE WASHINGTON,1245000676,124500,0676,School-Junior High/Middle,2308
-122.03775896978334,47.648683735816924,255,6600691,1008082,School-Alternative,Tesla STEM High School,Tesla STEM,4301 228th Ave NE,98053,-122.03776038,47.6486814,10,LAKE WASHINGTON,1625069020,162506,9020,School-Alternative,
-122.222444775777774,47.568912468714984,256,556,9279,School-Elementary,St. Monica Catholic School,St. Monica,4320 87th Ave SE,98040,-122.22244668,47.56891047,20,MERCER ISLAND,3622500126,362250,0126,School-Elementary,0
-122.388497409093716,47.540252240892301,257,1164,483969,School-Elementary,Gatewood Elementary School,Gatewood,4320 SW Myrtle St,98136,-122.38849945,47.54025048,10,SEATTLE,4315700020,431570,0020,School-Elementary,2139
-122.328025098318165,47.436971658652993,258,6600459,132,School-Alternative,Big Picture Schools,Big Picture,440 S 186th St,98148,-122.32802767,47.43696982,20,HIGHLINE,3223049094,322304,9094,School-Alternative,0
-122.278121386312307,47.326812847786449,259,10,20,School-Junior High/Middle,Kilo Middle School,Kilo,4400 S 308th St,98001,-122.27812457,47.32681096,10,FEDERAL WAY,1021049002,102104,9002,School-Junior High/Middle,3701
-122.388242993163118,47.315975647291609,260,331,2379,School-Elementary,Twin Lakes Elementary School,Twin Lakes,4400 SW 320th St,98023,-122.38824624,47.31597397,10,FEDERAL WAY,1121039098,112103,9098,School-Elementary,3628
-122.276642984026722,47.468377444383705,261,1335,21159,School-Elementary,Thorndyke Elementary School,Thorndyke,4415 S 150th St,98188,-122.27664538,47.46837553,10,TUKWILA,0042000280,004200,0280,School-Elementary,3635
-122.385069119183356,47.56342006603937,262,6600655,833797,School-Elementary,Hope Lutheran School,Hope Lutheran,4456 42nd Ave SW,98116,-122.38507106,47.56341831,20,SEATTLE,0952005960,095200,5960,School-Elementary,0
-122.277847917251222,47.662197684822132,263,876,345476,School-Elementary,Laurelhurst Elementary School,Laurelhurst,4530 46th Ave NE,98105,-122.27784942,47.66219579,10,SEATTLE,5364200330,536420,0330,School-Elementary,2437
-121.733821804750619,47.469475353661416,264,6600547,24368,School-Other Facility,Camp Waskowitz,Camp Waskowitz,45505 SE 150th St,98045,-121.73382325,47.46947301,10,SNOQUALMIE VALLEY,2423089040,242308,9040,School-Other Facility,0
-122.274957070989103,47.474828796575231,265,2325,21156,School-Junior High/Middle,Showalter Middle School,Showalter,4628 S 144th St,98168,-122.27495943,47.47482688,10,TUKWILA,1523049108,152304,9108,School-Junior High/Middle,2564
-122.11740532377614,47.561938071610548,266,347,100,School-Elementary,Cougar Ridge Elementary School,Cougar Ridge,4630 167th Ave SE,98006,-122.1174072,47.56193584,10,ISSAQUAH,1324059077,132405,9077,School-Elementary,4375
-122.274086217557624,47.474340816528404,267,6600240,21157,School-Other Facility,Administration Center-Tukwila,Admin,4640 S 144th St,98168,-122.27408858,47.4743389,10,TUKWILA,1523049108,152304,9108,School-Other Facility,0
-122.331522079829853,47.66346760702973,268,2193,334273,School-Elementary,The Meridian School,Meridian,4649 Sunnyside Ave N,98103,-122.33152358,47.66346581,20,SEATTLE,0825049102,082504,9102,School-Elementary,0
-121.714742500692893,47.47362797265189,269,6600677,24465,School-Junior High/Middle,Twin Falls Middle School,Twin Falls,46910 SE Middle Fork Rd,98045,-121.71474378,47.47362566,10,SNOQUALMIE VALLEY,1823099046,182309,9046,School-Junior High/Middle,5135
-122.155368173840529,47.558991364803376,270,178,101,School-High,Forest Ridge School of the Sacred Heart,Forest Ridge High,4800 139th Ave SE,98006,-122.15537008,47.55898921,20,BELLEVUE,2224059005,222405,9005,School-High,0
-122.155877696009043,47.559117048884907,271,6600353,242530,School-Junior High/Middle,Forest Ridge School of the Sacred Heart,Forest Ridge,4800 139th Ave SE,98006,-122.15587961,47.5591149,20,BELLEVUE,2224059005,222405,9005,School-Junior High/Middle,0
-122.271995335096037,47.52390925878786,272,6600334,525468,School-Elementary,South Shore K-8 School,South Shore,4800 S Henderson St,98118,-122.27199745,47.52390734,10,SEATTLE,2123700250,212370,0250,School-Elementary,0
-122.336795403386262,47.66391362180368,273,854,12407,School-Elementary,St. Benedict School,St. Benedict,4811 Wallingford Ave N,98103,-122.3367969,47.66391184,20,SEATTLE,4083800835,408380,0835,School-Elementary,0
-122.348348584779274,47.664791539624808,274,6600664,325960,School-Elementary,KapKa Cooperative School,KapKa Coop,4918 Linden Ave N,98103,-122.34835007,47.66478978,20,SEATTLE,9521100946,952110,0946,School-Elementary,0
-122.318895863373527,47.558126299921085,275,913,499517,School-Elementary,Maple Elementary School,Maple,4925 Corson Ave S,98108,-122.31889783,47.55812445,10,SEATTLE,3869400560,386940,0560,School-Elementary,2353
-121.911207694634072,47.651511932724183,276,269,157,School-Elementary,Carnation School,Carnation,4950 Tolt Ave,98014,-121.91120898,47.65150946,10,RIVERVIEW,1625079060,162507,9060,School-Elementary,2485
-122.162160285651439,47.280782850964592,277,19,787661,School-High,Auburn Adventist Academy High School,Auburn Adventist,5000 Auburn Way S,98092,-122.16216372,47.28078071,20,AUBURN,2721059042,272105,9042,School-High,0
-122.27345397069044,47.663725760489363,278,880,12406,School-Elementary,Villa Academy School,Villa Academy,5001 NE 50th St,98105,-122.27345546,47.66372386,20,SEATTLE,1025049038,102504,9038,School-Elementary,0
-122.222175997800036,47.267764164876425,279,2191,59,School-High,Auburn Riverside High School,Riverside,501 Oravetz Rd SE,98092,-122.22217951,47.26776216,10,AUBURN,6655000026,665500,0026,School-High,4474
-122.220037716924253,47.557787652784754,280,2133,185598,School-High,Northwest Yeshiva High School,NW Yeshiva,5017 90th Ave SE,98040,-122.22003967,47.55778564,20,MERCER ISLAND,4351300740,435130,0740,School-High,0
-122.149227529204794,47.614794299901391,281,203,114407,School-Junior High/Middle,Odle Middle School,Odle,502 143rd Ave NE,98007,-122.14922918,47.61479216,10,BELLEVUE,8839900080,883990,0080,School-Junior High/Middle,3631
-122.222677042749453,47.310647014644871,282,6600629,37,School-Other Facility,Auburn Adminstrative Annex,Admin Annex,502 4th St NE,98002,-122.22268031,47.31064501,10,AUBURN,1821059082,182105,9082,School-Other Facility,0
-122.1264256207415,47.557004640105021,283,6600354,243456,School-Junior High/Middle,Hillside Student Community School,Hillside ,5027 159th Pl SE,98006,-122.12642752,47.55700242,20,ISSAQUAH,2324059028,232405,9028,School-Junior High/Middle,0
-122.223041775814906,47.294018297601546,284,50,48,School-Elementary,Holy Family Catholic School,Holy Family Catholic,505 17th St SE,98002,-122.22304514,47.29401629,20,AUBURN,1921059018,192105,9018,School-Elementary,0
-122.268549805245499,47.545789879424461,285,1026,495696,School-Elementary,Graham Hill Elementary School,Graham Hill,5149 S Graham St,98118,-122.26855182,47.54578796,10,SEATTLE,1102000138,110200,0138,School-Elementary,3378
-122.356817783262386,47.649761973524043,286,10000024,839162,School-College or University,Washington Academy of Languages,WA Academy of Languages,521 Wall St,98121,-122.35681934,47.64976022,20,SEATTLE,0697000064,069700,0064,School-College or University,0
-122.195493459976319,47.656546726318275,287,10000030,8639,School-High,Puget Sound Adventist Academy,Adventist Academy,5320 108th Ave NE,98033,-122.19549495,47.65654469,20,LAKE WASHINGTON,1725059198,172505,9198,School-High,0
-122.222704743585965,47.553751856343709,288,542,9280,School-Elementary,Island Park Elementary School,Island Park,5437 Island Crest Way,98040,-122.22270671,47.55374985,10,MERCER ISLAND,1924059040,192405,9040,School-Elementary,3162
-122.007960674096623,47.187076061981607,289,298,207,School-Junior High/Middle,Enumclaw Middle School,Enumclaw Middle,550 Semanski St S,98022,-122.00796261,47.1870746,10,ENUMCLAW,2620069020,262006,9020,School-Junior High/Middle,4210
-122.31390990800918,47.5523015362919,290,905,490884,School-Alternative,Grover Cleveland STEM High School,Grover Cleveland,5511 15th Ave S,98108,-122.3139119,47.55229968,10,SEATTLE,7549802085,754980,2085,School-Alternative,2392
-122.195782235657944,47.6575002005915,291,6600168,35858,School-College or University,Northwest University,Northwest University,5520 108th Ave NE,98033,-122.19578372,47.65749816,10,LAKE WASHINGTON,1725059203,172505,9203,School-College or University,0
-122.04537611957835,47.536629313660477,292,358,2415,School-Elementary,Issaquah Valley Elementary School,Issaquah Valley,555 NW Holly St,98027,-122.04537808,47.5366269,10,ISSAQUAH,2824069012,282406,9012,School-Elementary,3673
-122.36223892748535,47.670177740730523,293,903,12307,School-Elementary,West Woodland Elementary School,West Woodland,5601 4th Ave NW,98107,-122.36224039,47.67017601,10,SEATTLE,2768000375,276800,0375,School-Elementary,2142
-122.264083028105532,47.31943164631592,294,7,33,School-Elementary,Evergreen Heights Elementary School,Evergreen Heights,5602 S 316th St,98001,-122.26408625,47.31942973,10,AUBURN,1121049022,112104,9022,School-Elementary,3745
-122.26135948147973,47.333844812592474,295,6600283,692199,School-Elementary,Meredith Hill Elementary School,Meredith Hill,5830 S 300th St  ,98001,-122.26136263,47.33384289,10,FEDERAL WAY,0221049149,022104,9149,School-Elementary,4480
-122.259132135213164,47.468914133582956,296,6600241,21158,School-Elementary,Tukwila Elementary School,Tukwila,5939 S 149th St,98168,-122.25913453,47.4689122,10,TUKWILA,3597000120,359700,0120,School-Elementary,3488
-122.362138345222007,47.548622146645833,297,882,498220,School-Alternative,Louisa Boren STEM K-8 School,Louisa Boren,5950 Delridge Way SW,98106,-122.36214035,47.54862035,10,SEATTLE,3438501230,343850,1230,School-Alternative,0
-122.351090838088027,47.548517950692812,298,892,786088,School-College or University,South Seattle College,South Seattle College,6000 16th Ave SW,98106,-122.35109284,47.54851614,10,SEATTLE,6171900005,617190,0005,School-College or University,0
-122.138310180729306,47.662113284341345,299,612,568273,School-Elementary,Benjamin Rush Elementary School,Benjamin Rush,6101 152nd Ave NE,98052,-122.1383116,47.66211114,10,LAKE WASHINGTON,1125059014,112505,9014,School-Elementary,0
-122.325165841967817,47.484421306745311,300,1268,152,School-Elementary,Cedarhurst Elementary School,Cedarhurst,611 S 132nd St,98168,-122.32516815,47.48441945,10,HIGHLINE,1446403320,144640,3320,School-Elementary,2926
-122.392119311483043,47.673499232957113,301,895,324373,School-Elementary,Adams Elementary School,Adams,6110 28th Ave NW,98107,-122.39212076,47.67349756,10,SEATTLE,6658000060,665800,0060,School-Elementary,2138
-122.341454382648891,47.496424495944012,302,1201,831172,School-High,New Start High School,New Start,614 SW 120th St,98146,-122.34145662,47.49642266,10,HIGHLINE,0723049248,072304,9248,School-High,0
-122.235302790220317,47.296466322930108,303,6600519,47,School-Other Facility,Auburn Maint/Ops/Trans Center,Auburn MOT,615 15th St SW,98001,-122.23530614,47.29646435,10,AUBURN,2421049097,242104,9097,School-Other Facility,0
-122.306013618881195,47.596920381326079,304,1191,452159,School-Elementary,Giddens School,Giddens,620 20th Ave S,98144,-122.30601541,47.59691852,20,SEATTLE,3319501965,331950,1965,School-Elementary,0
-122.220143552895962,47.274525984026234,305,6600534,57,School-Junior High/Middle,Mt. Baker Middle School,Mt. Baker,620 37th St SE,98002,-122.22014703,47.27452397,10,AUBURN,3021059031,302105,9031,School-Junior High/Middle,4462
-122.22965822294546,47.385692644716642,306,6600644,616921,School-Junior High/Middle,Mill Creek Middle School,Mill Creek,620 Central Ave N,98032,-122.22966108,47.38569065,10,KENT,5385600005,538560,0005,School-Junior High/Middle,5016
-122.262934305906228,47.673652549481858,307,979,834819,School-Elementary,Sand Point School,Sand Point,6208 60th Ave NE,98115,-122.26293576,47.67365063,10,SEATTLE,1125049134,112504,9134,School-Elementary,5205
-122.262930247622833,47.67365260040652,308,6600699,834819,School-Elementary,Sand Point Elementary School,Sand Point,6208 60th Ave NE,98115,-122.2629317,47.67365068,10,SEATTLE,1125049134,112504,9134,School-Elementary,
-122.154148685553523,47.616168557320442,309,163,98414,School-Elementary,Cedar Park Christian International School,Cedar Park Christian Intl,625 140th Ave NE,98005,-122.15415033,47.61616643,20,BELLEVUE,3425059003,342505,9003,School-Elementary,0
-122.324894010748707,47.319597874591118,310,90,2375,School-Elementary,Mirror Lake Elementary School,Mirror Lake,625 S 314th St,98003,-122.32489723,47.31959607,10,FEDERAL WAY,0821049035,082104,9035,School-Elementary,3159
-122.253278464043404,47.492453199251933,311,1306,506131,School-Elementary,Campbell Hill Elementary School,Campbell Hill,6418 S 124th St,98178,-122.25328073,47.49245126,10,RENTON,1123049102,112304,9102,School-Elementary,3034
-122.10623495858529,47.664283130783993,312,6600647,367265,School-College or University,Lake Washington Institute of Technology Redmond Campus,Lake Washington IT,6505 176th Ave NE,98052,-122.10623634,47.66428093,10,LAKE WASHINGTON,1225059043,122505,9043,School-College or University,0
-122.324294551405828,47.596301113747337,313,6600708,978954,School-High,Puget Sound Community School,Puget Sound Comm,660 S Dearborn St,98134,-122.32429635,47.59629929,20,SEATTLE,5247802530,524780,2530,School-High,
-122.276909750932305,47.541743780547073,314,1020,833906,School-Elementary,Brighton School,Brighton,6725 45th Ave S,98118,-122.27691179,47.54174187,10,SEATTLE,3812400550,381240,0550,School-Elementary,0
-122.251689955491671,47.737058007186171,315,242,149230,School-Elementary,Arrowhead Elementary School,Arrowhead,6725 NE Arrowhead Dr,98028,-122.25169112,47.73705607,10,NORTHSHORE,1426049070,142604,9070,School-Elementary,3107
-122.373490420064712,47.541764586026829,316,6600430,490868,School-Elementary,West Seattle Elementary School,West Seattle,6760 34th Ave SW,98126,-122.37349246,47.5417628,10,SEATTLE,2524039050,252403,9050,School-Elementary,0
-122.324879704932798,47.541606869432151,317,10000025,486287,School-College or University,South Seattle College-Georgetown Campus,SSC Georgetown,6800 E Marginal Way S,98108,-122.32488174,47.54160502,10,SEATTLE,0001800137,000180,0137,School-College or University,0
-122.185188461489204,47.540390467920432,318,6600679,9370,School-Junior High/Middle,Risdon Middle School,Risdon,6928 116th Ave SE,98056,-122.18519047,47.54038838,10,RENTON,2824059127,282405,9127,School-Junior High/Middle,0
-122.308278219887143,47.625479063190838,319,949,442411,School-Elementary,St. Joseph School,St. Joseph,700 18th Ave E,98112,-122.30827988,47.62547722,20,SEATTLE,1336800825,133680,0825,School-Elementary,0
-122.02871192764438,47.522364659760747,320,355,570012,School-High,Issaquah High School,Issaquah High,700 2nd Ave SE,98027,-122.02871395,47.52236219,10,ISSAQUAH,3424069030,342406,9030,School-High,3385
-122.276180207187721,47.680639352752557,321,984,352107,School-Elementary,View Ridge Elementary School,View Ridge,7047 50th Ave NE,98115,-122.27618163,47.68063746,10,SEATTLE,7974200250,797420,0250,School-Elementary,2667
-122.323033077207697,47.625308841946477,322,2195,447371,School-College or University,Cornish College Kerry Hall,Cornish College Kerry Hall,710 E Roy St,98102,-122.32303474,47.62530702,10,SEATTLE,9831200125,983120,0125,School-College or University,0
-122.324688558539705,47.523610846425179,323,907,528808,School-Elementary,Concord International Elementary School,Concord,723 S Concord St,98108,-122.32469068,47.52360899,10,SEATTLE,7885100255,788510,0255,School-Elementary,2199
-122.304294136764469,47.626443703491056,324,937,435298,School-High,Holy Names Academy,Holy Names,728 21st Ave E,98112,-122.3042958,47.62644185,20,SEATTLE,1338800660,133880,0660,School-High,0
-122.180674206457056,47.670232371353791,325,461,8633,School-Elementary,Holy Family Parish School K-8,Holy Family Parish,7300 120th Ave NE,98033,-122.18067562,47.67023031,20,LAKE WASHINGTON,0925059018,092505,9018,School-Elementary,0
-122.376216413974859,47.536043351763077,326,6600707,493627,School-Elementary,Northwest Montessori - West Seattle,Northwest Montessori,7344 35th Ave SW,98126,-122.37621848,47.53604157,20,SEATTLE,8122100020,812210,0020,School-Elementary,
-122.282822350218723,47.685572854997005,327,961,350419,School-Elementary,Decatur Elementary School,Decatur,7711 43rd Ave NE,98115,-122.28282375,47.68557098,10,SEATTLE,6392002430,639200,2430,School-Elementary,0
-122.264935499444988,47.687792373974496,328,6600650,348145,School-High,Waldorf High School Campus,Waldorf High,7777 62nd Ave NE,98115,-122.26493689,47.68779046,20,SEATTLE,0225049062,022504,9062,School-High,0
-122.235199256651754,47.63605147785951,329,6600569,9270,School-Elementary,Bellevue Christian Three Points School,Bellevue Christian Three Points,7800 NE 28th St  ,98039,-122.23520086,47.63604951,20,BELLEVUE,2425049104,242504,9104,School-Elementary,0
-122.236419474874239,47.485495354610045,330,2744,518842,School-Alternative,Secondary Learning Center,Secondary Learning,7800 S 132nd St,98178,-122.23642177,47.48549338,10,RENTON,2144800350,214480,0350,School-Alternative,0
-122.342444800466851,47.686257597677049,331,838,12293,School-Elementary,Daniel Bagley Elementary School,Daniel Bagley,7821 Stone Ave N,98103,-122.34244619,47.68625583,10,SEATTLE,0625049048,062504,9048,School-Elementary,2450
-122.219383731274107,47.31005402651919,332,23,713208,School-High,Auburn High School,Auburn,800 4th St NE,98002,-122.21938701,47.31005201,10,AUBURN,1821059082,182105,9082,School-High,2795
-122.163251465120254,47.496353906577149,333,6600410,12187,School-Elementary,Honey Dew Elementary School,Honey Dew,800 Union Ave NE,98059,-122.16325367,47.49635175,10,RENTON,1023059007,102305,9007,School-Elementary,0
-122.300391977906258,47.686982233715689,334,6600060,345520,School-High,University Prep Academy,U Prep,8000 25th Ave NE,98115,-122.30039337,47.68698039,20,SEATTLE,1513800010,151380,0010,School-High,0
-122.233929648341999,47.616925603162791,335,139,9272,School-Elementary,Medina Elementary School,Medina,8001 NE 8th St,98039,-122.23393134,47.61692363,10,BELLEVUE,3625049008,362504,9008,School-Elementary,3436
-121.828838713787576,47.528851446980298,336,6600151,195851,School-Other Facility,Administration/Transportation,Admin,8001 SE Cedar St,98065,-121.82884041,47.52884877,10,SNOQUALMIE VALLEY,3024089020,302408,9020,School-Other Facility,0
-122.324813320970762,47.607755894934357,337,865,436176,School-High,O Dea High School,O Dea,802 Terry Ave,98104,-122.32481506,47.60775407,20,SEATTLE,5392100055,539210,0055,School-High,0
-122.231249973387321,47.720041664031932,338,503,8619,School-Junior High/Middle,Finn Hill Middle School,Finn Hill,8040 NE 132nd St,98034,-122.2312512,47.72003969,10,LAKE WASHINGTON,2426049128,242604,9128,School-Junior High/Middle,3590
-122.231249973387321,47.720041664031932,339,6600176,8619,School-Alternative,Environmental and Adventure School,Environmental and Adventure,8040 NE 132nd St ,98034,-122.2312512,47.72003969,10,LAKE WASHINGTON,2426049128,242604,9128,School-Alternative,1800
-122.030662469222634,47.521463992729821,340,6600367,2421,School-Other Facility,Transportation Center,Transportation Center,805 2nd Ave SE,98027,-122.0306645,47.52146153,10,ISSAQUAH,3424069030,342406,9030,School-Other Facility,0
-122.308533016694881,47.609577685329263,341,6600717,432207,School-Junior High/Middle,Lake Washington Girls Middle School,LWGMS,810 18th Ave,98122,-122.30853475,47.60957584,20,SEATTLE,2254502165,225450,2165,School-Junior High/Middle,
-122.167213736766897,47.676096656987852,342,487,8630,School-Elementary,Rose Hill Elementary School,Rose Hill,8110 128th Ave NE,98033,-122.16721511,47.67609457,10,LAKE WASHINGTON,0425059017,042505,9017,School-Elementary,2992
-122.335470899123266,47.689714180450437,343,839,331870,School-High,Bishop Blanchet High School,Blanchet,8200 Wallingford Ave N,98103,-122.33547228,47.6897124,20,SEATTLE,0625049002,062504,9002,School-High,0
-122.229316336266578,47.498036829339036,344,1304,12261,School-Elementary,Bryn Mawr Elementary School,Bryn Mawr,8212 S 118th St,98178,-122.22931856,47.49803484,10,RENTON,3810400035,381040,0035,School-Elementary,2439
-122.230924886498158,47.72472063907243,345,505,168003,School-Elementary,Henry David Thoreau Elementary School,Henry David Thoreau,8224 NE 138th St,98034,-122.23092609,47.72471867,10,LAKE WASHINGTON,2426049146,242604,9146,School-Elementary,0
-122.345432283416173,47.500355744059163,346,1195,12265,School-Alternative,Arts & Academics Academy,Arts & Academics Academy,830 SW 116th St,98146,-122.3454345,47.50035391,10,HIGHLINE,0723049367,072304,9367,School-Alternative,0
-122.229820544680166,47.621415301165847,347,152,988985,School-Elementary,St. Thomas School,St. Thomas,8300 NE 12th St,98039,-122.22982221,47.62141332,20,BELLEVUE,2525049106,252504,9106,School-Elementary,0
-122.160063293250317,47.525929681854727,348,6600129,744669,School-Elementary,Newcastle Elementary School,Newcastle,8400 136th Ave SE,98059,-122.16006536,47.52592753,10,ISSAQUAH,3424059034,342405,9034,School-Elementary,4592
-122.318493665246152,47.685659184927111,349,963,835351,School-Elementary,Fairview Christian School,Fairview Christian,844 NE 78th St,98115,-122.31849506,47.68565737,20,SEATTLE,2464400730,246440,0730,School-Elementary,0
-122.319914639278423,47.690617375562915,350,981,12395,School-Elementary,St. Catherine of Siena Parish School,St. Catherine ,8524 8th Ave NE,98115,-122.31991601,47.69061557,20,SEATTLE,5100400125,510040,0125,School-Elementary,0
-122.270910513098741,47.525672369179453,351,6600237,927161,School-High,South Lake High School,South Lake,8601 Rainier Ave S,98118,-122.27091262,47.52567045,10,SEATTLE,2123700250,212370,0250,School-High,3778
-122.265858930919919,47.524071807061659,352,1035,530959,School-High,Rainier Beach High School,Rainier Beach,8815 Seward Park Ave S,98118,-122.26586105,47.52406988,10,SEATTLE,3524049149,352404,9149,School-High,3327
-122.288004194126017,47.611182809716958,353,1081,443601,School-Elementary,St. Therese Catholic Academy,St. Therese,900 35th Ave,98122,-122.28800592,47.61118093,20,SEATTLE,9184700280,918470,0280,School-Elementary,0
-122.38709888315924,47.694870737567499,354,1012,12287,School-Elementary,North Beach Elementary School,North Beach,9018 24th Ave NW,98117,-122.38710024,47.69486907,10,SEATTLE,3526039024,352603,9024,School-Elementary,3218
-122.217233495183052,47.571616500223769,355,548,9278,School-High,Mercer Island High School,Mercer Island,9100 SE 42nd St,98040,-122.21723538,47.57161449,10,MERCER ISLAND,1824059005,182405,9005,School-High,3029
-122.335330656906137,47.616874576003781,356,6600661,840697,School-Elementary,Spruce Street School,Spruce Street,914 Virginia St,98101,-122.33533236,47.61687277,20,SEATTLE,0660001365,066000,1365,School-Elementary,0
-122.37760222361463,47.696751968222301,357,1017,831688,School-Junior High/Middle,Whitman Middle School,Whitman,9201 15th Ave NW,98117,-122.37760357,47.69675028,10,SEATTLE,3526039131,352603,9131,School-Junior High/Middle,3277
-122.217491015773874,47.318363264578409,358,47,715263,School-Elementary,Green River Montessori School,Green River Montessori,922 12th St NE,98002,-122.21749424,47.31836125,20,AUBURN,3339900900,333990,0900,School-Elementary,0
-122.452254750893289,47.427602124965432,359,6600619,21169,School-Elementary,Chautauqua Elementary School,Chatauqua,9309 SW Cemetery Rd,98070,-122.45225737,47.42760047,10,VASHON ISLAND,0522039067,052203,9067,School-Elementary,4468
-122.370513987414071,47.517743496925611,360,1118,501095,School-Elementary,Roxhill Elementary School,Roxhill,9430 30th Ave SW,98126,-122.37051613,47.5177417,10,SEATTLE,3624039057,362403,9057,School-Elementary,3157
-122.307624416137614,47.698438135919474,361,977,258793,School-Elementary,Sacajawea Elementary School,Sacajawea,9501 20th Ave NE,98115,-122.30762576,47.69843631,10,SEATTLE,8024202285,802420,2285,School-Elementary,3028
-122.456868054225936,47.42314332367863,362,780,1060717,School-High,Vashon Island High School,Vashon Island,9600 SW 204th St,98070,-122.4568707,47.42314168,10,VASHON ISLAND,0522039057,052203,9057,School-High,2419
-122.21176292609411,47.631281538803719,363,123,112995,School-Elementary,Clyde Hill Elementary School,Clyde Hill,9601 NE 24th St,98004,-122.21176454,47.63127952,10,BELLEVUE,8086000305,808600,0305,School-Elementary,2847
-122.209533726463135,47.717969705818881,364,508,8623,School-Elementary,Juanita Elementary School,Juanita,9635 NE 132nd St,98034,-122.20953495,47.7179677,10,LAKE WASHINGTON,3026059039,302605,9039,School-Elementary,2796
-122.258635224928412,47.514820805356806,365,1025,512278,School-Elementary,Emerson Elementary School,Emerson,9709 60th Ave S,98118,-122.25863738,47.51481887,10,SEATTLE,7129302300,712930,2300,School-Elementary,2118
-122.208249489910642,47.386036722387772,366,373,801991,School-Elementary,East Hill Elementary School,East Hill,9825 S 240th St,98031,-122.20825234,47.38603468,10,KENT,1922059001,192205,9001,School-Elementary,2851
-122.108506696178495,47.727438351152344,367,642,21190,School-Elementary,Sunrise Elementary School-Northshore,Sunrise,14075 172nd Ave NE,98052,-122.10850779,47.7274362,10,NORTHSHORE,8121201010,812120,1010,School-Elementary,4187
-122.12081988498376,47.630588879661438,368,227,68,School-Elementary,Sherwood Forest Elementary School-Bellevue,Sherwood Forest,16411 NE 24th St,98008,-122.12082144,47.63058669,10,BELLEVUE,2525059092,252505,9092,School-Elementary,3339
-122.321355881867092,47.616898058241716,369,1077,836506,School-College or University,Seattle Central College,Seattle Central,1701 Broadway,98122,-122.32135758,47.61689623,10,SEATTLE,6003001130,600300,1130,School-College or University,0
-122.32272705827765,47.442785853876458,370,6600247,600823,School-Other Facility,Transportation-Highline,Transportation,17910 8th Ave S,98148,-122.3227296,47.44278401,10,HIGHLINE,3223049003,322304,9003,School-Other Facility,0
-122.080326942152098,47.759004115376101,371,789,21193,School-Elementary,Bear Creek Elementary School,Bear Creek,18101 Avondale Rd NE,98077,-122.08032784,47.75900197,10,NORTHSHORE,0726069060,072606,9060,School-Elementary,4305
-122.280727094330317,47.435139318171046,372,1319,12231,School-Junior High/Middle,Chinook Middle School-Highline,Chinook,18650 42nd Ave S,98188,-122.28072968,47.43513742,10,HIGHLINE,3423049044,342304,9044,School-Junior High/Middle,3098
-122.190406071613253,47.612119326465624,373,10000023,103991,School-College or University,Seattle University Eastside Center,Seattle U Eastside ,200 112th Ave NE,98004,-122.19040776,47.61211727,20,BELLEVUE,2543200070,254320,0070,School-College or University,0
-122.164537166772746,47.402650908237462,374,579,8590,School-Elementary,Sunrise Elementary School-Kent,Sunrise,22300 132nd Ave SE,98042,-122.16453991,47.40264876,10,KENT,1022059180,102205,9180,School-Elementary,4420
-122.025872458366536,47.607374486572567,375,175,532317,School-High,Eastside Catholic High School,Eastside Catholic,232 228th Ave SE,98074,-122.02587406,47.60737209,20,LAKE WASHINGTON,3425069091,342506,9091,School-High,0
-122.010647759259726,47.559491005361544,376,6600633,77692,School-Junior High/Middle,Pacific Cascade Middle School,Pacific Cascade,24635 SE Issaquah Fall City Rd,98029,-122.01064959,47.55948853,10,ISSAQUAH,1424069019,142406,9019,School-Junior High/Middle,5200
-122.000248054745768,47.372815594688142,377,6600599,667199,School-Junior High/Middle,Summit Trail Middle School,Summit Trail,25600 SE Summit Landsburg Rd,98051,-122.00025093,47.37281307,10,TAHOMA,2622069047,262206,9047,School-Junior High/Middle,4556
-122.021404617835231,47.371896512994539,378,6600596,663049,School-Elementary,Rock Creek Elementary School,Rock Creek,25700 Maple Valley Black Diamond Rd SE,98038,-122.0214075,47.37189404,10,TAHOMA,2722069056,272206,9056,School-Elementary,4415
-122.022192933034987,47.371065700488828,379,6600045,860805,School-Other Facility,Administration Center-Tahoma,Admin,25720 Maple Valley Black Diamond Rd SE,98038,-122.02219583,47.37106322,10,TAHOMA,2722069056,272206,9056,School-Other Facility,0
-121.988263631077771,47.570419120877901,380,6600350,2413,School-Elementary,Endeavor Elementary School,Endeavor,26205 SE Issaquah Fall City Rd,98029,-121.98826539,47.57041663,10,ISSAQUAH,1324069062,132406,9062,School-Elementary,4493
-122.358617627121845,47.64627682884592,381,6600130,832291,School-Alternative,Cascade Parent Partnership Program,Cascade PPP,2919 1st Ave W,98119,-122.3586192,47.64627508,10,SEATTLE,2425039001,242503,9001,School-Alternative,0
-122.293644520244271,47.575889546707927,382,1173,925881,School-High,Franklin High School,Franklin,3013 S Mount Baker Blvd,98144,-122.2936464,47.57588767,10,SEATTLE,5700000430,570000,0430,School-High,2182
-122.294446768788333,47.271094966599414,383,94,26,School-Elementary,Rainier View Elementary School-Federal Way,Rainier View,3015 S 368th St,98003,-122.29445026,47.27109312,10,FEDERAL WAY,3321049048,332104,9048,School-Elementary,4422
-122.311150791774011,47.320269009008634,384,6600493,862856,School-Other Facility,Administrative Building-Federal Way,Admin,31405 18th Ave S,98003,-122.31115401,47.32026718,10,FEDERAL WAY,0921049233,092104,9233,School-Other Facility,0
-122.028798863765488,47.580336838739406,385,366,12225,School-Elementary,Sunny Hills Elementary School,Sunny Hills,3200 Issaquah Pine Lake Rd SE,98075,-122.0288006,47.58033443,10,ISSAQUAH,1024069041,102406,9041,School-Elementary,3386
-121.904807326973028,47.569528048132753,386,6600301,2355,School-Junior High/Middle,Chief Kanim Middle School,Chief Kanim,32627 SE Redmond Fall City Rd  ,98024,-121.90480897,47.56952548,10,SNOQUALMIE VALLEY,1524079112,152407,9112,School-Junior High/Middle,4397
-122.399135418245621,47.648238029733939,387,1379,757610,School-Elementary,Our Lady of Fatima Parish School,Our Lady of Fatima,3301 W Dravus St,98199,-122.39913698,47.64823635,20,SEATTLE,6822100520,682210,0520,School-Elementary,0
-122.349848676287223,47.292007940469141,388,328,2391,School-Elementary,Sherwood Forest Elementary School-Federal Way,Sherwood Forest,34600 12th Ave SW,98023,-122.34985205,47.2920062,10,FEDERAL WAY,4159200004,415920,0004,School-Elementary,4374
-122.338025077723131,47.657456403779129,389,847,315735,School-Junior High/Middle,Alexander Hamilton International Middle School,Alexander Hamilton Intl,1610 N 41st St,98103,-122.3380266,47.65745462,10,SEATTLE,4083301505,408330,1505,School-Junior High/Middle,0
-122.117752191975711,47.480072782274014,390,750,12170,School-High,Liberty High School,Liberty,16655 SE 136th St,98059,-122.11775447,47.48007052,10,ISSAQUAH,1323059038,132305,9038,School-High,3962
-122.336052087952623,47.755018226347246,391,6600102,16164,School-Elementary,Meridian Park Elementary School,Meridian Park,17077 Meridian Ave N,98133,-122.33605318,47.7550165,10,SHORELINE,3073500050,307350,0050,School-Elementary,3958
-122.289743845428603,47.754606898980377,392,1220,8646,School-Elementary,Brookside Elementary School,Brookside ,17447 37th Ave NE,98155,-122.28974494,47.75460506,10,SHORELINE,1154100565,115410,0565,School-Elementary,3230
-122.358658714062315,47.539609231808377,393,890,479979,School-Elementary,Captain Stephen E. Sanislo Elementary School,Sanislo,1812 SW Myrtle St,98106,-122.35866076,47.53960743,10,SEATTLE,3438502560,343850,2560,School-Elementary,3665
-122.287530090314675,47.725814345084274,394,6600697,254353,School-Alternative,Cedar Park Elementary School,Cedar Park,13224 37th Ave NE,98125,-122.28753131,47.72581248,10,SEATTLE,1454100350,145410,0350,School-Alternative,
-122.149016406257189,47.60115309329499,395,200,85,School-Elementary,Lake Hills Elementary School,Lake Hills,14310 SE 12th St,98007,-122.14901812,47.60115095,10,BELLEVUE,0324059022,032405,9022,School-Elementary,3225
-122.11491915293918,47.471435010830497,396,755,600543,School-Junior High/Middle,Maywood Middle School,Maywood,14490 168th Ave SE,98059,-122.11492148,47.47143274,10,ISSAQUAH,2423059005,242305,9005,School-Junior High/Middle,3636
-122.166162529765415,47.454804642300083,397,726,12171,School-High,Lindbergh High School,Lindbergh,16426 128th Ave SE,98058,-122.16616497,47.4548025,10,RENTON,2823059042,282305,9042,School-High,3741
-122.323515576653222,47.443365026986655,398,6600246,755534,School-Other Facility,Highline School Facility Services,Facility Services,17810 8th Ave S,98148,-122.32351811,47.44336318,10,HIGHLINE,3223049003,322304,9003,School-Other Facility,0
-122.19066442183275,47.758995376662682,399,2141,180835,School-College or University,University of Washington-Bothell,UW Bothell,18115 Campus Way NE,98011,-122.19066544,47.75899339,10,NORTHSHORE,0526059057,052605,9057,School-College or University,0
-122.310853570653123,47.404418904498677,400,1369,384842,School-Elementary,St. Philomena Catholic School,St. Philomena,1815 S 220th St,98198,-122.31085632,47.40441705,20,HIGHLINE,0576000260,057600,0260,School-Elementary,0
-122.287817654732876,47.76306025776698,401,1230,537576,School-Elementary,Lake Forest Park Elementary School,Lake Forest Park,18500 37th Ave NE,98155,-122.28781872,47.76305846,10,SHORELINE,0326049018,032604,9018,School-Elementary,2185
-122.041786879528743,47.719514391300372,402,806,164591,School-Elementary,Laura Ingalls Wilder Elementary School,Laura Ingalls Wilder,22130 NE 133rd St,98077,-122.04178795,47.71951213,10,LAKE WASHINGTON,2126069015,212606,9015,School-Elementary,4336
-122.320346917786523,47.639317199122367,403,826,429525,School-Elementary,Bertschi School,Bertschi,2227 10th Ave E,98102,-122.32034852,47.63931538,20,SEATTLE,2207500320,220750,0320,School-Elementary,0
-122.00651263039498,47.191203762156327,404,297,893822,School-High,Enumclaw High School,Enumclaw High,226 Semanski St S,98022,-122.00651466,47.19120223,10,ENUMCLAW,2620069016,262006,9016,School-High,3330
-122.3175069997218,47.641024132658487,405,834,759081,School-High,Seattle Preparatory School,Seattle Prep ,2400 11th Ave E,98102,-122.31750859,47.64102231,20,SEATTLE,2025049007,202504,9007,School-High,0
-122.003973747321496,47.577392650691074,406,341,875876,School-Elementary,Challenger Elementary School,Challenger,25200 SE Klahanie blvd,98029,-122.00397549,47.57739018,10,ISSAQUAH,1124069091,112406,9091,School-Elementary,4300
-122.211375033309565,47.368148846070198,407,397,668321,School-Elementary,Scenic Hill Elementary School,Scenic Hill,26025 Woodland Way S,98030,-122.21137798,47.36814681,10,KENT,3022059030,302205,9030,School-Elementary,3389
-122.040181249946343,47.323510636427741,408,6600467,806270,School-Elementary,Sawyer Woods Elementary School,Sawyer Woods,31135 228th Ave SE,98010,-122.04018443,47.32350821,10,KENT,0921069018,092106,9018,School-Elementary,4466
-122.011852598766751,47.187380956766255,409,310,208,School-Elementary,Southwood Elementary School,Southwood,3240 McDougall Ave,98022,-122.01185457,47.18737949,10,ENUMCLAW,2620069019,262006,9019,School-Elementary,3739
-121.90141713410631,47.518006710916403,410,6600549,2356,School-Other Facility,Echo Glen Childrens Center,Echo Glen,33010 SE 99th St,98065,-121.90141899,47.51800409,10,ISSAQUAH,3424079001,342407,9001,School-Other Facility,3569
-122.362653222907397,47.649628912444228,411,1056,757267,School-College or University,Seattle Pacific University,Seattle Pacific U,3307 3rd Ave W,98119,-122.36265478,47.64962717,20,SEATTLE,8900000555,890000,0555,School-College or University,0
-121.88150180509389,47.525112389842185,412,6600712,1141646,School-Elementary,Timber Ridge Elementary School,Timber Ridge,34412 SE Swenson Dr,98065,-121.8815036,47.52510975,10,SNOQUALMIE VALLEY,3524079024,352407,9024,School-Elementary,
-122.329036296625759,47.273933006242252,413,101,2397,School-Elementary,Montessori Academy at Spring Valley,Spring Valley Montessori,36605 Pacific Hwy S,98003,-122.32903977,47.27393123,20,FEDERAL WAY,2921049074,292104,9074,School-Elementary,0
-122.349881616183239,47.622870338662374,414,6600224,441135,School-Other Facility,Stadium/Athletic Office,Stadium/Athletic Office,401 5th Ave N,98109,-122.34988329,47.62286856,10,SEATTLE,1988200640,198820,0640,School-Other Facility,0
-122.223116108416065,47.571599590299151,415,6600343,189376,School-Alternative,Crest Learning Center,Crest Learning Center,4150 86th Ave SE,98040,-122.223118,47.57159759,10,MERCER ISLAND,1824059005,182405,9005,School-Alternative,0
-122.101632209679906,47.568794314114811,416,231,2409,School-Elementary,Sunset Elementary School,Sunset,4229 W Lake Sammamish Pkwy SE,98008,-122.10163404,47.56879205,10,ISSAQUAH,1324059064,132405,9064,School-Elementary,3228
-122.277396009507555,47.435535497767056,417,1339,397165,School-Alternative,Academy of Citizenship & Empowerment (ACE),ACE,4424 S 188th St,98188,-122.27739859,47.43553359,10,HIGHLINE,3423049044,342304,9044,School-Alternative,0
-122.180347255072547,47.555805404642712,418,181,12178,School-Elementary,Newport Heights Elementary School,Newport Heights,5225 119th Ave SE,98006,-122.18034919,47.55580331,10,BELLEVUE,6071201005,607120,1005,School-Elementary,3437
-122.195506459197233,47.657042857459381,419,470,539270,School-Elementary,Kirkland Seventh-day Adventist School K-8,Kirkland Seventh-day Adventist,5320 108th Ave NE,98033,-122.19550794,47.65704082,20,LAKE WASHINGTON,1725059198,172505,9198,School-Elementary,0
-122.364217730897352,47.66017841043125,420,6600665,1012520,School-Elementary,Pacific Crest School,Pacific Crest,600 NW Bright St,98107,-122.36421924,47.66017668,20,SEATTLE,4413100071,441310,0071,School-Elementary,0
-122.256303625744479,47.39159358520601,421,429,615051,School-Elementary,Neely-O Brien Elementary School,Neely-O Brien,6300 S 236th St,98032,-122.25630645,47.39159165,10,KENT,1422049030,142204,9030,School-Elementary,4356
-122.05992501024518,47.669997951673253,422,649,12139,School-Elementary,Emily Dickinson Elementary School,Emily Dickinson,7040 208th Ave NE,98053,-122.05992634,47.66999568,10,LAKE WASHINGTON,0825069008,082506,9008,School-Elementary,4018
-122.317111169529852,47.610656176896775,423,1079,448115,School-College or University,Seattle University,Seattle U,901 12th Ave,98122,-122.3171129,47.61065434,20,SEATTLE,2254500555,225450,0555,School-College or University,0
-122.215428911981661,47.277997388923325,424,45,788781,School-Elementary,Gildo Rey Elementary School,Gildo Rey,1005 37th St SE,98002,-122.21543237,47.27799537,10,AUBURN,3021059195,302105,9195,School-Elementary,3669
-122.191937617002807,47.701397505400529,425,449,32812,School-Elementary,Alexander Graham Bell Elementary School,Alexander Graham Bell,11212  NE 112th St,98033,-122.1919389,47.70139547,10,LAKE WASHINGTON,3226059008,322605,9008,School-Elementary,0
-122.183134231101405,47.409823132060701,426,6600545,627566,School-Elementary,Emerald Park Elementary School,Emerald Park,11800 SE 216th St,98031,-122.18313694,47.40982103,10,KENT,0922059182,092205,9182,School-Elementary,4545
-122.183628345084202,47.329092908929645,427,49,19,School-Elementary,Hazelwood Elementary School-Auburn,Hazelwood,11815 SE 304th St,98092,-122.18363151,47.32909081,10,AUBURN,0921059123,092105,9123,School-Elementary,4347
-122.18086257942069,47.673427204178623,428,6600030,8631,School-Alternative,Northstar Middle School,Northstar,12033 NE 80th St,98033,-122.18086398,47.67342514,10,LAKE WASHINGTON,0925059012,092505,9012,School-Alternative,4167
-122.179811043803255,47.743152428131424,429,260,109,School-Junior High/Middle,Northshore Jr High School,Northshore,12101 NE 160th St,98011,-122.17981212,47.74315039,10,NORTHSHORE,1626059131,162605,9131,School-Junior High/Middle,4021
-122.3170607892433,47.327614218706628,430,6600285,2366,School-Other Facility,Federal Way Memorial Field,Federal Way Memorial Field,1300 S 308th St,98003,-122.31706397,47.3276124,10,FEDERAL WAY,0821049001,082104,9001,School-Other Facility,0
-122.315607547085079,47.60114458720922,431,1175,442502,School-Elementary,Bailey Gatzert Elementary School,Bailey Gatzert,1301 E Yesler Way,98122,-122.31560932,47.60114275,10,SEATTLE,3319500005,331950,0005,School-Elementary,2307
-122.132854382442716,47.608497899188663,432,208,118747,School-Elementary,St. Louise School,St. Louise,133 156th Ave SE,98007,-122.13285605,47.60849572,20,BELLEVUE,3525059044,352505,9044,School-Elementary,0
-122.145325020607956,47.634671428013753,433,2077,115528,School-College or University,Bellevue College-North Campus,Bellevue College-North Campus,14673 NE 29th Pl,98007,-122.14532657,47.63466929,10,BELLEVUE,4306700020,430670,0020,School-College or University,0
-122.141142857313696,47.592085973278351,434,6600414,90,School-Junior High/Middle,Robinswood Middle School,Robinswood,14844 SE 22nd St,98007,-122.14114461,47.5920838,10,BELLEVUE,0224059054,022405,9054,School-Junior High/Middle,0
-122.140783493363628,47.625867390475165,435,196,69,School-Junior High/Middle,Highland Middle School,Highland,15027 Bel Red Rd,98007,-122.14078508,47.62586524,10,BELLEVUE,2625059039,262505,9039,School-Junior High/Middle,3166
-122.307927399804271,47.634422501724679,436,947,422778,School-Elementary,Seattle Hebrew Academy,Seattle Hebrew,1617 Interlaken Dr E,98112,-122.30792902,47.63442066,20,SEATTLE,2125049015,212504,9015,School-Elementary,0
-122.00474837751554,47.546805276237372,437,6600675,905987,School-Elementary,Grand Ridge Elementary School,Grand Ridge,1739 NE Park Dr,98029,-122.00475027,47.54680278,10,ISSAQUAH,3629780160,362978,0160,School-Elementary,5056
-122.22447059682176,47.770326421486878,438,265,111,School-Elementary,Westhill Elementary School,Westhill,19515 88th Ave NE,98011,-122.2244716,47.77032453,10,NORTHSHORE,0626059012,062605,9012,School-Elementary,3287
-122.341310409449122,47.425125775584249,439,1252,614898,School-Elementary,Marvista Elementary School,Marvista,19800 Marine View Dr SW,98166,-122.34131305,47.42512396,10,HIGHLINE,6113400095,611340,0095,School-Elementary,3097
-122.229701578555151,47.350296519775007,440,380,672022,School-Elementary,Kent View Christian Elementary School,Kent View Christian,20 49th St NE,98002,-122.22970463,47.35029453,20,AUBURN,9360000135,936000,0135,School-Elementary,0
-122.315104496392706,47.585469648999187,441,1168,473848,School-Elementary,Beacon Hill International Elementary School,Beacon Hill,2025 14th Ave S,98144,-122.31510634,47.5854678,10,SEATTLE,1498300850,149830,0850,School-Elementary,2070
-122.304011579274629,47.398385039973071,442,1365,382195,School-Junior High/Middle,Pacific Middle School,Pacific,22705 24th Ave S,98198,-122.30401437,47.39838318,10,HIGHLINE,1622049239,162204,9239,School-Junior High/Middle,3333
-122.210990792269044,47.45847525638942,443,689,608756,School-Elementary,Talbot Hill Elementary School,Talbot Hill,2300 Talbot Rd S,98055,-122.21099323,47.45847322,10,RENTON,3023059073,302305,9073,School-Elementary,3740
-122.214267777292307,47.288356789944345,444,62,51,School-Elementary,Pioneer Elementary School,Pioneer,2301 M St SE,98002,-122.21427117,47.28835477,10,AUBURN,1921059054,192105,9054,School-Elementary,3227
-122.033725010798634,47.407327978988363,445,6600044,620395,School-Other Facility,Maintenance,Maint,23015 SE 216th Way,98038,-122.03372769,47.40732552,10,TAHOMA,1022069035,102206,9035,School-Other Facility,0
-122.004983518802717,47.309839808243453,446,239,638133,School-Elementary,Black Diamond Elementary School,Black Diamond,25314 Baker St,98010,-122.00498677,47.30983731,10,ENUMCLAW,0844000325,084400,0325,School-Elementary,3430
-122.40039660376371,47.642778867005539,447,1371,758840,School-Elementary,Catharine Blaine K-8 School,Catharine Blaine,2550 34th Ave W,98199,-122.40039819,47.64277719,10,SEATTLE,2225039016,222503,9016,School-Elementary,2838
-122.184975430911919,47.35204297319752,448,393,8610,School-Elementary,Pine Tree Elementary School,Pine Tree,27825 118th Ave SE,98030,-122.18497846,47.35204088,10,KENT,3322059125,332205,9125,School-Elementary,3593
-122.281789645453728,47.351226994364445,449,16,28,School-Elementary,Valhalla Elementary School,Valhalla,27847 42nd Ave S,98001,-122.28179269,47.35122511,10,FEDERAL WAY,7967600210,796760,0210,School-Elementary,3582
-121.949102353937519,47.734902551883174,450,6600626,125984,School-Alternative,Eagle Rock Multi-Age Program,Eagle Rock,29300 NE 150th St,98019,-121.94910329,47.7349002,10,RIVERVIEW,1826079013,182607,9013,School-Alternative,3006
-122.227472866187512,47.263972708167778,451,51,12131,School-Elementary,Ilalko Elementary School,Ilalko,301 Oravetz Pl SE,98092,-122.2274764,47.26397071,10,AUBURN,3121059007,312105,9007,School-Elementary,4417
-122.274837832545344,47.524961787753284,452,1024,515735,School-Elementary,Dunlap Elementary School,Dunlap,4525 S Cloverdale St,98118,-122.27483994,47.52495988,10,SEATTLE,2123700235,212370,0235,School-Elementary,2321
-122.316409250996145,47.555869198837051,453,919,477595,School-Elementary,St George Parish School,St. George,5117 13th Ave S,98108,-122.31641122,47.55586735,20,SEATTLE,5141000220,514100,0220,School-Elementary,0
-122.289104461180344,47.680510606032215,454,959,749449,School-Elementary,Concordia Lutheran School,Concordia Lutheran,7040 36th Ave NE,98115,-122.28910588,47.68050874,20,SEATTLE,7974200450,797420,0450,School-Elementary,0
-122.332619070786976,47.699389872741556,455,1147,251998,School-College or University,North Seattle College,North Seattle College,9600 College Way N,98103,-122.33262041,47.69938809,10,SEATTLE,3226049021,322604,9021,School-College or University,0
-122.346443309762776,47.502289110592649,456,1193,744863,School-Junior High/Middle,Cascade Middle School-Highline,Cascade,11212 10th Ave SW,98146,-122.34644552,47.50228728,10,HIGHLINE,0723049367,072304,9367,School-Junior High/Middle,3163
-122.263171694028685,47.498863134331344,457,1310,501718,School-Elementary,Rainier View Elementary School-Seattle,Rainier View,11650 Beacon Ave S,98178,-122.26317392,47.49886121,10,SEATTLE,3352401300,335240,1300,School-Elementary,3380
-122.314619799702243,47.749044008295051,458,6600104,16165,School-Other Facility,Transportation-Shoreline,Transportation,1216 NE 165th St,98155,-122.31462091,47.74904221,10,SHORELINE,0826049046,082604,9046,School-Other Facility,0
-122.101860630590551,47.569855609677056,459,6600716,235569,School-Alternative,French Immersion School of Washington,FISW,4211 W Lake Sammamish Pkwy SE,98008,-122.10186246,47.56985335,20,ISSAQUAH,1324059109,132405,9109,School-Alternative,
-122.375613353467898,47.671429659506813,460,902,751094,School-Elementary,St. Alphonsus School,St. Alphonsus,5816 15th Ave NW,98107,-122.37561481,47.67142795,20,SEATTLE,2767900390,276790,0390,School-Elementary,0
-122.189391491199714,47.746646421435571,461,247,174576,School-K-12,Cedar Park Christian School,Cedar Park Christian,16300 112th Ave NE,98011,-122.18939256,47.74664439,20,NORTHSHORE,1726059028,172605,9028,School-K-12,0
-122.287113508854105,47.558180901940894,462,6600131,478363,School-Alternative,Interagency Academy,Interagency Academy,3528 S Ferdinand St,98118,-122.28711547,47.55817901,10,SEATTLE,1703400755,170340,0755,School-Alternative,0
-122.286779700528982,47.618107148174822,463,1063,924116,School-Elementary,Epiphany School,Epiphany,3611 E Denny Way,98122,-122.2867814,47.61810527,20,SEATTLE,9103000660,910300,0660,School-Elementary,0
-122.339894431230377,47.659921436730741,464,6600701,746393,School-Alternative,Cascadia Elementary School,Cascadia,4400 Interlake Ave N,98103,-122.33989594,47.65991966,10,SEATTLE,7821200700,782120,0700,School-Alternative,
-122.396888024345245,47.565492904995331,465,991,466141,School-Elementary,Genesee Hill Elementary School,Genesee Hill,5012 SW Genesee St,98116,-122.39688995,47.56549117,10,SEATTLE,2095200005,209520,0005,School-Elementary,3429
-122.321261032524191,47.698208838841744,466,970,252771,School-Elementary,Olympic View Elementary School-Seattle,Olympic View,504 NE 95th St,98115,-122.32126237,47.69820704,10,SEATTLE,5100404840,510040,4840,School-Elementary,2256
-122.27595439599861,47.554780616188744,467,6600394,491289,School-Alternative,Orca K-8 School,Orca,5215 46th Ave S,98118,-122.27595637,47.55477871,10,SEATTLE,1704900242,170490,0242,School-Alternative,0
-122.04240169343467,47.5368666390398,468,6600362,2416,School-Other Facility,Administrative Building-Issaquah,Admin,565 NW Holly St,98027,-122.04240365,47.53686422,10,ISSAQUAH,2824069012,282406,9012,School-Other Facility,0
-122.27690972255678,47.54174510601252,469,6600225,833906,School-Elementary,Martin Luther King Jr. Elementary School,MLK Jr.,6725 45th Ave S,98118,-122.27691176,47.5417432,10,SEATTLE,3812400550,381240,0550,School-Elementary,0
-122.239960730156952,47.499813857743447,470,1308,12267,School-Elementary,Lakeridge Elementary School-Renton,Lakeridge,7400 S 115th St,98178,-122.23996295,47.49981189,10,RENTON,1223049096,122304,9096,School-Elementary,2929
-122.01475094587029,47.185532869091283,471,6600147,340,School-Elementary,Sunrise Elementary School-Enumclaw,Sunrise,899 Osceola St S,98022,-122.0147529,47.18553143,10,ENUMCLAW,2620069019,262006,9019,School-Elementary,4289
-122.301891418731316,47.520693207438917,472,2361,734353,School-High,Raisbeck Aviation High School,Raisbeck Aviation,9229 E Marginal Way S,98108,-122.30189355,47.52069133,10,SEATTLE,5729800010,572980,0010,School-High,0
-122.169228417078941,47.686876124351656,473,478,30825,School-Elementary,Mark Twain Elementary School-Lake Washington,Mark Twain,9525 130th Ave NE,98033,-122.16922975,47.68687405,10,LAKE WASHINGTON,3888100027,388810,0027,School-Elementary,0
-122.298834665125852,47.35635450998582,474,89,2362,School-Elementary,Mark Twain Elementary School-Federal Way,Mark Twain,2450 S Star Lake Rd,98003,-122.29883768,47.35635265,10,FEDERAL WAY,7204800010,720480,0010,School-Elementary,3627
-122.366860712770006,47.309363074468934,475,326,2384,School-Elementary,Olympic View Elementary School-Federal Way,Olympic View,2626 SW 327th St,98023,-122.36686399,47.30936136,10,FEDERAL WAY,1321039008,132103,9008,School-Elementary,3432
-122.322248930619409,47.341990875230699,476,92,2363,School-Elementary,Nautilus K-8 School,Nautilus K-8,1000 S 289th St,98003,-122.32225203,47.34198906,10,FEDERAL WAY,0521049005,052104,9005,School-Elementary,3625
-122.198494677090352,47.58955310301743,477,127,108249,School-Elementary,Enatai Elementary School,Enatai,10615 SE 23rd St,98004,-122.19849647,47.58955105,10,BELLEVUE,3860400035,386040,0035,School-Elementary,2846
-122.312716733244869,47.677009317209667,478,975,338736,School-High,Roosevelt High School,Roosevelt,1410 NE 66th St,98115,-122.31271817,47.67700749,10,SEATTLE,8826900005,882690,0005,School-High,2285
-122.356661205958247,47.329040427917747,479,313,868283,School-Elementary,Adelaide Elementary School,Adelaide,1635 SW 304th St,98023,-122.35666438,47.32903868,10,FEDERAL WAY,1221039084,122103,9084,School-Elementary,3519
-122.339148041116715,47.770066614943495,480,1133,16147,School-Elementary,Echo Lake Elementary School,Echo Lake,19345 Wallingford Ave N,98133,-122.33914909,47.77006496,10,SHORELINE,8649100005,864910,0005,School-Elementary,3104
-121.908758336695882,47.651779104262445,481,6600209,160,School-Other Facility,Administration Center-Riverview,Admin,32240 NE 50th St,98014,-121.90875962,47.65177663,10,RIVERVIEW,1625079060,162507,9060,School-Other Facility,0
-122.324053720561253,47.65752770950423,482,6600607,834753,School-Alternative,John Stanford International Elementary School at Latona,John Stanford Intl,4057 5th Ave NE,98105,-122.32405524,47.6575259,10,SEATTLE,4206901020,420690,1020,School-Alternative,2081
-122.201840932608278,47.488971985619841,483,6600372,12188,School-Other Facility,Transportation/Maintenance,Transportation/Maintenance,420 Park Ave N,98057,-122.2018432,47.48896992,10,RENTON,7564600105,756460,0105,School-Other Facility,0
-122.359465725052317,47.516976641252974,484,885,508163,School-Elementary,Holy Family Bilingual Catholic School,Holy Family,9615 20th Ave SW,98106,-122.35946787,47.51697483,20,SEATTLE,3004800005,300480,0005,School-Elementary,0
-122.147101311318792,47.482407479328252,485,752,578016,School-Elementary,Maplewood Heights Elementary School,Maplewood Heights,130 Jericho Ave SE,98059,-122.14710359,47.48240528,10,RENTON,0847100090,084710,0090,School-Elementary,3586
-122.057980453386605,47.228949044896957,486,311,391899,School-Elementary,Westwood Elementary School,Westwood,21200 SE 416th St,98022,-122.05798364,47.22894698,10,ENUMCLAW,0920069070,092006,9070,School-Elementary,3585
-122.027295671515049,47.620810927698734,487,661,12224,School-Elementary,Samantha Smith Elementary School,Samantha Smith,23305 NE 14th St,98074,-122.02729721,47.62080855,10,LAKE WASHINGTON,2725069032,272506,9032,School-Elementary,0
-122.217165131775815,47.311986814921489,488,6600632,713339,School-Other Facility,Auburn Administrative Center,Admin Center,915 4th St NE,98002,-122.21716839,47.3119848,10,AUBURN,2648000090,264800,0090,School-Other Facility,0
-122.295690307202861,47.537533256874063,489,921,765816,School-Elementary,Van Asselt Elementary School,Van Asselt,7201 Beacon Ave S,98108,-122.29569236,47.53753137,10,SEATTLE,5129000050,512900,0050,School-Elementary,2120
-122.365598538347498,47.640515939493447,490,1042,835401,School-Elementary,Frantz H. Coe Elementary School,Frantz Coe,2424 7th Ave W,98119,-122.36560014,47.6405142,10,SEATTLE,9270200005,927020,0005,School-Elementary,2090
-122.312256187655464,47.363229656389244,491,448,387264,School-Elementary,Woodmont K-8 School,Woodmont K-8,26454 16th Ave S,98198,-122.31225917,47.36322782,10,FEDERAL WAY,2822049137,282204,9137,School-Elementary,3328
-122.305300860536917,47.621599301747452,492,941,447925,School-Junior High/Middle,Edmonds S. Meany Middle School,Edmond S. Meany,301 21st Ave E,98112,-122.30530254,47.62159745,10,SEATTLE,2825049008,282504,9008,School-Junior High/Middle,0
-122.30301251521864,47.574047117243936,493,1179,461331,School-Elementary,Captain George W. Kimball Elementary School,Kimball ,3200 23rd Ave S,98144,-122.30301441,47.57404525,10,SEATTLE,1624049006,162404,9006,School-Elementary,3478
-122.06051027994198,47.668138169435629,494,650,12140,School-Junior High/Middle,Evergreen Middle School,Evergreen,6900 208th Ave NE,98053,-122.06051161,47.6681359,10,LAKE WASHINGTON,0825069008,082506,9008,School-Junior High/Middle,4148
-122.163377439842833,47.726866474370055,495,506,21186,School-Elementary,John Muir Elementary School,John Muir,14012 132nd Ave NE,98034,-122.16337858,47.7268644,10,LAKE WASHINGTON,2226059038,222605,9038,School-Elementary,0
-122.155785055743095,47.371835846365769,496,576,8603,School-Elementary,Meridian Elementary School,Meridian,25621 140th Ave SE,98042,-122.15578797,47.37183368,10,KENT,2722059062,272205,9062,School-Elementary,2565
-122.030803336467002,47.613401320344991,497,2179,12220,School-High,Eastlake High School,Eastlake,400 228th Ave NE,98074,-122.03080492,47.61339894,10,LAKE WASHINGTON,3425069021,342506,9021,School-High,4439
-122.170580339912249,47.604032930164742,498,2156,83,School-Alternative,International School,International,445 128th Ave SE,98005,-122.17058205,47.60403083,10,BELLEVUE,3325059117,332505,9117,School-Alternative,3522
-122.353645957772429,47.66480047694791,499,6600706,310251,School-Elementary,Northwest Montessori - Woodland Park,Northwest Montessori,4910 Phinney Ave N,98103,-122.35364745,47.66479873,20,SEATTLE,9521100045,952110,0045,School-Elementary,
-122.211391791425086,47.469067942323676,500,2320,597634,School-College or University,City University-Renton,City University,555 S Renton Village Pl,98057,-122.21139417,47.46906591,10,RENTON,7231600542,723160,0542,School-College or University,0
-122.454359589340214,47.42863050217661,501,770,21170,School-Junior High/Middle,McMurray Middle School,McMurray,9329 SW Cemetery Rd,98070,-122.45436221,47.42862885,10,VASHON ISLAND,0522039067,052203,9067,School-Junior High/Middle,3667
-122.294871644553098,47.682589228834651,502,962,12297,School-Junior High/Middle,Nathan Eckstein Middle School,Nathan Eckstein,3003 NE 75th St,98115,-122.29487305,47.68258737,10,SEATTLE,0425049022,042504,9022,School-Junior High/Middle,2729
-122.215065498307837,47.329272827757563,503,34,797548,School-Junior High/Middle,Cascade Middle School-Auburn,Cascade,1015 24th St NE,98002,-122.21506866,47.3292708,10,AUBURN,5094400080,509440,0080,School-Junior High/Middle,2394
-122.211083485355431,47.628142031046366,504,119,163,School-Junior High/Middle,Chinook Middle School-Bellevue,Chinook,2001 98th Ave NE,98004,-122.21108511,47.62814001,10,BELLEVUE,8086000205,808600,0205,School-Junior High/Middle,3338
-122.114324386041048,47.547021403611417,505,6600718,771055,School-Elementary,Open Window School,Open Window,6128 168th Pl SE,98006,-122.11432633,47.54701915,20,ISSAQUAH,2424059043,242405,9043,School-Elementary,
-122.317110329804564,47.610655326925382,506,10000018,448115,School-Alternative,Middle College High School at Seattle University,Middle College at Seattle U,901 12th Ave,98122,-122.31711206,47.61065349,10,SEATTLE,2254500555,225450,0555,School-Alternative,0
-122.228639285570011,47.53246201091445,507,544,9282,School-Elementary,Lakeridge Elementary School-Mercer Island,Lakeridge,8215 SE 78th St,98040,-122.22864135,47.53246002,10,MERCER ISLAND,2524049015,252404,9015,School-Elementary,2981
-122.151159371230335,47.747904158703967,508,6600722,160193,School-K-12,Woodinville Montessori School - Woodinville Campus,Woodinville Montessori,13965 NE 166th St,98072,-122.1511604,47.74790208,20,NORTHSHORE,1026059032,102605,9032,School-K-12,
-122.359434620227475,47.745692153147822,509,1291,16148,School-Elementary,Highland Terrace Elementary School,Highland Terrace,100 N 160th St,98133,-122.35943575,47.74569045,10,SHORELINE,1326039052,132603,9052,School-Elementary,3231
-122.336288239664597,47.618156163255293,510,2194,441546,School-College or University,Cornish College of the Arts,Cornish College,1000 Lenora St,98121,-122.33628994,47.61815436,10,SEATTLE,0660001420,066000,1420,School-College or University,0
-122.26276424566926,47.510420160581027,511,1312,509318,School-Elementary,St. Paul School,St. Paul,10001 57th Ave S,98178,-122.26276642,47.51041823,20,SEATTLE,1686400005,168640,0005,School-Elementary,0
-122.369327781758514,47.513202277435376,512,6600488,528088,School-Junior High/Middle,Explorer West Middle School,Exlplorer West,10015 28th Ave SW,98146,-122.36932994,47.51320047,20,HIGHLINE,0123039045,012303,9045,School-Junior High/Middle,0
-122.344116267775419,47.513310110419624,513,1206,781976,School-Elementary,White Center Heights Elementary School,White Center Heights,10015 6th Ave SW,98146,-122.34411843,47.51330828,10,HIGHLINE,2895800020,289580,0020,School-Elementary,2639
-122.207626595742838,47.373404033202185,514,379,8601,School-High,Kent-Meridian High School,Kent-Meridian,10020 SE 256th St,98030,-122.20762951,47.37340199,10,KENT,2022059066,202205,9066,School-High,2797
-122.119788064656589,47.691700343217043,515,633,12148,School-Junior High/Middle,Redmond Middle School,Redmond Middle,10055 166th Ave NE,98052,-122.11978933,47.69169819,10,LAKE WASHINGTON,3626059032,362605,9032,School-Junior High/Middle,3232
-122.259757560822194,47.510872000159274,516,6600652,525497,School-Elementary,Amazing Grace Christian School,Amazing Grace,10056 Renton Ave S,98178,-122.25975973,47.51087007,20,SEATTLE,7131300400,713130,0400,School-Elementary,0
-122.358137259681072,47.631104022606536,517,1057,417651,School-Elementary,St. Anne School,St. Anne,101 W Lee St,98119,-122.3581389,47.63110226,20,SEATTLE,1731800825,173180,0825,School-Elementary,0
-122.204637520584356,47.409630838602986,518,389,630373,School-Elementary,Panther Lake Elementary School-Kent,Panther Lake,10200 SE 216th St,98031,-122.20464023,47.40962879,10,KENT,0822059031,082205,9031,School-Elementary,5178
-122.348164654956989,47.489112679287906,519,1204,12387,School-Elementary,St. Bernadette School,St. Bernadette,1028 SW 128th St,98146,-122.34816694,47.48911085,20,HIGHLINE,3744600925,374460,0925,School-Elementary,0
-122.217358465909754,47.320821642851037,520,39,32,School-Elementary,Dick Scobee Elementary School,Dick Scobee,1031 14th St NE,98002,-122.21736168,47.32081963,10,AUBURN,0001000047,000100,0047,School-Elementary,2932
-122.015397452276233,47.61956969917162,521,6600673,1008614,School-Elementary,Rachel Carson Elementary School,Rachel Carson,1035 244th Ave NE,98074,-122.01539899,47.6195673,10,LAKE WASHINGTON,2725069016,272506,9016,School-Elementary,5139
-122.197680167807434,47.604404895661453,522,112,82,School-High,Bellevue High School,Bellevue,10416 SE Wolverine Way,98004,-122.19768189,47.60440285,10,BELLEVUE,0682000005,068200,0005,School-High,2701
-121.362419633073046,47.709339916351702,523,6600330,21149,School-K-12,Skykomish K-12 School,Skykomish K-12,105 6th St N,98288,-121.36241865,47.70933842,10,SKYKOMISH,5060800005,506080,0005,School-K-12,0
-122.12543061852611,47.600496647493742,524,226,84,School-Elementary,Phantom Lake Elementary School,Phantom Lake,1050 160th Ave SE,98008,-122.12543232,47.60049445,10,BELLEVUE,0224059037,022405,9037,School-Elementary,3168
-122.318335416377948,47.624426981096867,525,830,454290,School-Elementary,Lowell Elementary School,Lowell,1058 E Mercer St,98102,-122.31833709,47.62442515,10,SEATTLE,6852700355,685270,0355,School-Elementary,3714
-122.198624272747637,47.715496037124126,526,507,42811,School-High,Juanita High School,Juanita,10601 NE 132nd St,98034,-122.19862549,47.71549401,10,LAKE WASHINGTON,2926059049,292605,9049,School-High,3771
-122.198624344812487,47.715498778166051,527,6600692,42811,School-Alternative,Futures School,Futures,10601 NE 132nd St,98034,-122.19862557,47.71549676,10,LAKE WASHINGTON,2926059049,292605,9049,School-Alternative,
-122.350667512757155,47.50617303216162,528,1199,12268,School-Elementary,Mount View Elementary School,Mount View,10811 12th Ave SW,98146,-122.35066971,47.5061712,10,HIGHLINE,3451000245,345100,0245,School-Elementary,2144
-122.195554020694601,47.655295688259244,529,2743,8640,School-Alternative,Emerson K-12,Emerson K-12,10903 NE 53rd St,98033,-122.19555551,47.65529365,10,LAKE WASHINGTON,1725059195,172505,9195,School-Alternative,3855
-122.195554092514143,47.655298429310427,530,6600694,8640,School-Alternative,Emerson High School,Emerson,10903 NE 53rd St,98033,-122.19555559,47.65529639,10,LAKE WASHINGTON,1725059195,172505,9195,School-Alternative,
-122.193827532748486,47.366312776254837,531,398,8605,School-Alternative,Kent Phoenix Academy,Phoenix Academy,11000 SE 264th St,98030,-122.19383049,47.3663107,10,KENT,8830400015,883040,0015,School-Alternative,0
-122.224715453222757,47.298003659856725,532,67,45,School-Elementary,Terminal Park Elementary School,Terminal Park,1101 D St SE,98002,-122.2247188,47.29800166,10,AUBURN,1921059053,192105,9053,School-Elementary,2659
-122.15234799971816,47.50163037192214,533,756,579312,School-High,Hazen High School,Hazen,1101 Hoquiam Ave NE,98059,-122.15235017,47.50162819,10,RENTON,1023059072,102305,9072,School-High,0
-122.318754623700272,47.334290669050802,534,97,2364,School-Junior High/Middle,Sacajawea Middle School,Sacajawea,1101 S Dash Point Rd,98003,-122.31875777,47.33428885,10,FEDERAL WAY,0521049024,052104,9024,School-Junior High/Middle,3626
-122.193540310510087,47.395292731050304,535,390,632908,School-Elementary,Park Orchard Elementary School,Park Orchard,11010 SE 232nd St,98031,-122.1935431,47.39529065,10,KENT,1722059155,172205,9155,School-Elementary,3491
-122.292750637167828,47.709860673339548,536,2130,12280,School-Junior High/Middle,Jane Addams Middle School,Jane Addams,11051 34th Ave NE,98125,-122.29275193,47.70985882,10,SEATTLE,0752000170,075200,0170,School-Junior High/Middle,0
-122.124652441514684,47.699352721388443,537,624,12143,School-Elementary,Norman Rockwell Elementary School,Norman Rockwell,11125 162nd Ave NE,98052,-122.12465368,47.69935058,10,LAKE WASHINGTON,3526059091,352605,9091,School-Elementary,0
-122.290868073074634,47.612237471451003,538,1068,453428,School-Elementary,Madrona K-8 School,Madrona ,1121 33rd Ave,98122,-122.2908698,47.61223559,10,SEATTLE,7152200350,715220,0350,School-Elementary,2069
-122.354283933523902,47.502241943133413,539,1123,500877,School-Elementary,West Seattle Montessori School & Academy,West Seattle Montessori,11215 15th Ave SW,98146,-122.35428615,47.50224012,20,HIGHLINE,0723049112,072304,9112,School-Elementary,0
-122.03140794429784,47.600036799036232,540,2172,12227,School-High,Skyline High School,Skyline,1122 228th Ave SE,98075,-122.03140959,47.60003441,10,ISSAQUAH,0324069106,032406,9106,School-High,4495
-122.189890733350268,47.380080498991042,541,371,631263,School-Elementary,George T. Daniel Elementary School,George T. Daniel,11310 SE 248th St,98030,-122.18989361,47.38007841,10,KENT,2022059119,202205,9119,School-Elementary,4413
-122.314616328313903,47.713455838297655,542,6600117,256128,School-Alternative,Hazel Wolf K-8 School,Hazel Wolf,11530 12th Ave NE,98125,-122.3146176,47.71345403,10,SEATTLE,2044500390,204450,0390,School-Alternative,0
-121.909617835823752,47.700554978413493,543,271,194,School-Elementary,Stillwater Elementary School,Stillwater,11530 320th Ave NE,98014,-121.9096189,47.70055255,10,RIVERVIEW,3326079040,332607,9040,School-Elementary,4332
-122.166881958116974,47.704618979448618,544,474,35270,School-College or University,Lake Washington Institute of Technology Kirkland Campus,Lake Washington IT,11605 132nd Ave NE,98034,-122.1668832,47.7046169,10,LAKE WASHINGTON,2826059151,282605,9151,School-College or University,5953
-122.166881958116974,47.704618979448618,545,6600122,35270,School-Alternative,Washington Network for Innovative Careers,WANIC,11605 132nd Ave NE,98034,-122.1668832,47.7046169,10,LAKE WASHINGTON,2826059151,282605,9151,School-Alternative,0
-122.32934329906098,47.714834716967815,546,1149,247853,School-Elementary,Northgate Elementary School,Northgate,11725 1st Ave NE,98125,-122.32934457,47.71483294,10,SEATTLE,6411600312,641160,0312,School-Elementary,3027
-122.183367562823051,47.724852097804558,547,2206,8621,School-Elementary,Robert Frost Elementary School,Robert Frost,11801 NE 140th St,98034,-122.18336873,47.72485005,10,LAKE WASHINGTON,2126059025,212605,9025,School-Elementary,3675
-122.181024582816093,47.358895459806469,548,6600646,669319,School-Elementary,Millennium Elementary School,Millennium,11919 SE 270th St,98030,-122.18102758,47.35889336,10,KENT,2822059052,282205,9052,School-Elementary,4581
-122.3569746164506,47.686409744249829,549,855,12397,School-Elementary,St. John Catholic School,St. John,120 N 79th St,98103,-122.35697601,47.68640801,20,SEATTLE,1646501150,164650,1150,School-Elementary,0
-122.316350676030297,47.612711622475892,550,6600658,441089,School-High,Seattle Academy - Upper School,Seattle Academy,1201 E Union St,98122,-122.3163524,47.61270979,20,SEATTLE,3225049015,322504,9015,School-High,0
-122.317431583261836,47.509436510529738,551,1265,12259,School-Elementary,Beverly Park Elementary School,Beverly Park,1201 S 104th St,98168,-122.31743376,47.50943465,10,HIGHLINE,0523049202,052304,9202,School-Elementary,2765
-122.180866566694505,47.673424415118582,552,473,8631,School-High,Lake Washington High School,Lake Washington,12033 NE 80th St,98033,-122.18086797,47.67342235,10,LAKE WASHINGTON,0925059012,092505,9012,School-High,2739
-122.179356595840289,47.370908363351298,553,6600419,8602,School-Other Facility,Administration Center-Kent,Admin,12033 SE 256th St,98030,-122.17935952,47.37090626,10,KENT,2822059177,282205,9177,School-Other Facility,0
-122.176032020468924,47.741952149163808,554,268,110,School-Elementary,Woodmoor Elementary School,Woodmoor,12225 NE 160th St,98011,-122.1760331,47.7419501,10,NORTHSHORE,1626059011,162605,9011,School-Elementary,4377
-122.301189190613897,47.492836463356717,555,1277,12266,School-Elementary,Hilltop Elementary School,Hilltop,12250 24th Ave S,98168,-122.30119145,47.49283458,10,HIGHLINE,0257000231,025700,0231,School-Elementary,3165
-122.313820029089499,47.721722301240128,556,1101,272614,School-Elementary,St. Matthew School,St. Matthew,1230 NE 127th St,98125,-122.31382127,47.72172049,20,SEATTLE,6414100390,641410,0390,School-Elementary,0
-122.173701361824698,47.640367571367264,557,157,117736,School-Elementary,Cherry Crest Elementary School,Cherry Crest,12400 NE 32nd St,98005,-122.17370291,47.64036549,10,BELLEVUE,2125059050,212505,9050,School-Elementary,3742
-122.29231908413351,47.48148382320182,558,1267,21154,School-Elementary,Cascade View Elementary School-Tukwila,Cascade View ,13601 32nd Ave S,98168,-122.29232141,47.48148193,10,TUKWILA,1623049038,162304,9038,School-Elementary,3226
-122.148888130859632,47.755012628920099,559,793,83729,School-K-12,Chrysalis School,Chrysalis,14241 NE Woodinville Duvall Rd,98072,-122.14888912,47.75501057,20,NORTHSHORE,9517600060,951760,0060,School-K-12,0
-122.183289909820118,47.766904200254501,560,6600105,176556,School-K-12,Woodinville Montessori School - Main Campus,Woodinville Montessori,19102 North Creek Pkwy,98011,-122.18329088,47.76690224,20,NORTHSHORE,6979200320,697920,0320,School-K-12,0
-122.350857014293609,47.6214095501389,561,6600332,439725,School-Alternative,The Center High School,The Center,305 Harrison St,98109,-122.3508587,47.62140777,10,SEATTLE,1985200305,198520,0305,School-Alternative,1856
-122.248998426609774,47.270990471637447,562,599,12130,School-Elementary,Alpac Elementary School,Alpac,310 Milwaukee Blvd N,98047,-122.24900192,47.27098853,10,AUBURN,3621049006,362104,9006,School-Elementary,3825
-122.335943071953068,47.277493747209107,563,87,2395,School-Junior High/Middle,Illahee Middle School,Illahee,36001 1st Ave S,98003,-122.33594653,47.27749198,10,FEDERAL WAY,3021049013,302104,9013,School-Junior High/Middle,3898
-122.348970768887995,47.637963582534027,564,6600128,414769,School-Alternative,Queen Anne Elementary School,Queen Anne,411 Boston St,98109,-122.34897238,47.63796181,10,SEATTLE,0809003050,080900,3050,School-Alternative,0
-122.28070625483771,47.326807238701079,565,11,21,School-Elementary,Lake Dolloff Elementary School,Lake Dolloff,4200 S 308th St,98001,-122.28070944,47.32680535,10,FEDERAL WAY,1021049002,102104,9002,School-Elementary,3738
-122.171791104241322,47.567721348646607,566,182,98,School-High,Newport High School,Newport,4333 Factoria Blvd SE,98006,-122.17179298,47.56771924,10,BELLEVUE,1624059023,162405,9023,School-High,3486
-122.339784749629857,47.664820118841099,567,6600649,841015,School-Elementary,Waldorf School - Kinderhaus Campus,Waldorf Kindergarten,4919 Woodlawn Ave N,98103,-122.33978624,47.66481834,20,SEATTLE,6865200005,686520,0005,School-Elementary,0
-122.029618671898945,47.524307292454488,568,342,2420,School-Elementary,Clark Elementary School,Clark,500 2nd Ave SE,98027,-122.02962068,47.52430483,10,ISSAQUAH,3424069030,342406,9030,School-Elementary,2738
-122.318068361285555,47.666654481392527,569,868,12405,School-Elementary,University Child Development School,University Child Dev,5062 9th Ave NE,98105,-122.31806984,47.66665266,20,SEATTLE,2862100610,286210,0610,School-Elementary,0
-122.028809211335556,47.524488548764026,570,357,1129642,School-Junior High/Middle,Issaquah Middle School,Issaquah Middle,600 2nd Ave SE,98027,-122.02881122,47.52448608,10,ISSAQUAH,3424069030,342406,9030,School-Junior High/Middle,3038
-122.292840952195888,47.674910302917681,571,957,12403,School-Elementary,Assumption St. Bridget School,Assumption,6220 32nd Ave NE,98115,-122.2928424,47.67490844,20,SEATTLE,1868903240,186890,3240,School-Elementary,0
-122.05992494555737,47.669995210542332,572,6600174,12139,School-Alternative,Explorer Community School,Explorer Community,7040 208th Ave NE,98053,-122.05992627,47.66999294,10,LAKE WASHINGTON,0825069008,082506,9008,School-Alternative,1687
-122.184220454472438,47.538038449578337,573,698,9371,School-Elementary,Hazelwood Elementary School-Newcastle,Hazelwood,7100 116th Ave SE,98056,-122.18422247,47.53803636,10,RENTON,2824059124,282405,9124,School-Elementary,3485
-121.816887661846522,47.522781189232028,574,758,21151,School-High,Mount Si High School,Mount Si ,8651 Meadowbrook Way SE,98065,-121.81688936,47.52277849,10,SNOQUALMIE VALLEY,3224089060,322408,9060,School-High,2850
-122.065521853782585,47.68126407580872,575,2314,366184,School-K-12,The Bear Creek School,Bear Creek,8905 208th Ave NE,98053,-122.06552313,47.68126182,20,LAKE WASHINGTON,0525069015,052506,9015,School-K-12,0
-122.212255892714765,47.624171231125331,576,150,165,School-Elementary,Sacred Heart School,Sacred Heart,9450 NE 14th St,98004,-122.21225754,47.62416922,20,BELLEVUE,4107100041,410710,0041,School-Elementary,0
-122.318520661202768,47.510872792156462,577,1281,522417,School-Elementary,Our Lady of Lourdes School,Our Lady of Lourdes,10243 12th Ave S,98168,-122.31852283,47.51087093,20,HIGHLINE,2788400110,278840,0110,School-Elementary,0
-122.374166943650025,47.509594011677443,578,6600015,524594,School-Elementary,Westside School,Westside,10404 34th Ave SW,98146,-122.37416912,47.50959221,20,SEATTLE,7804400110,780440,0110,School-Elementary,0
-122.361127428539902,47.705973308097086,579,1303,916043,School-Elementary,Viewlands Elementary School,Viewlands ,10525 3rd Ave NW,98177,-122.36112873,47.70597159,10,SEATTLE,7474900060,747490,0060,School-Elementary,2977
-122.344334924633188,47.617342170201219,580,2336,840712,School-College or University,City University-Bellevue,City University,521 Wall St,98121,-122.34433662,47.61734038,10,BELLEVUE,0697000064,069700,0064,School-College or University,0
-122.01106189310903,47.683860676971619,581,6600721,1243530,School-Elementary,Ella Baker Elementary School,Ella Baker,9595 Eastridge Dr NE,98053,-122.01106311,47.68385833,10,LAKE WASHINGTON,7203102310,720310,2310,School-Elementary,5512
-122.167507758709078,47.768042482463024,582,267,115,School-Elementary,Woodin Elementary School,Woodin,12950 NE 195th St,98011,-122.1675087,47.7680405,10,NORTHSHORE,0426059034,042605,9034,School-Elementary,3749
-122.325944049026617,47.613392340022308,583,1071,438964,School-High,The Northwest School,Northwest,1415 Summit Ave,98122,-122.32594577,47.61339052,20,SEATTLE,8804901000,880490,1000,School-High,0
-122.354112295858087,47.320160437132955,584,323,2374,School-Junior High/Middle,Lakota Middle School,Lakota,1415 SW 314th St,98023,-122.35411552,47.32015869,10,FEDERAL WAY,0721049143,072104,9143,School-Junior High/Middle,3381
-122.375443437829901,47.676706772887727,585,1005,318188,School-High,Ballard High School,Ballard,1418 NW 65th St,98117,-122.37544487,47.67670507,10,SEATTLE,3050700050,305070,0050,School-High,2220
-122.151830997906373,47.599598759465188,586,6600592,86,School-Alternative,Jubilee REACH,Jubilee REACH,14200 SE 13th Pl,98007,-122.15183272,47.59959662,10,BELLEVUE,2207100005,220710,0005,School-Alternative,0
-122.150054103432268,47.617973557774775,587,209,144424,School-Elementary,Stevenson Elementary School,Stevenson,14220 NE 8th St,98007,-122.15005574,47.61797142,10,BELLEVUE,2725059043,272505,9043,School-Elementary,3100
-122.312525416078998,47.613945952931694,588,6600709,440576,School-Junior High/Middle,Seattle Academy - Middle School,Seattle Academy,1432 15th Ave,98122,-122.31252713,47.61394411,20,SEATTLE,7234600135,723460,0135,School-Junior High/Middle,
-122.326594703626441,47.668278714326966,589,6600698,834446,School-Alternative,F.A. McDonald International Elementary School,McDonald Intl,144 NE 54th St,98105,-122.32659618,47.66827691,10,SEATTLE,9550202395,955020,2395,School-Alternative,
-122.360045828635734,47.687281731962251,590,1009,322234,School-Elementary,Greenwood Elementary School,Greenwood,144 NW 80th St,98117,-122.36004722,47.68728,10,SEATTLE,2919200635,291920,0635,School-Elementary,2123
-122.251364381375168,47.730198975681688,591,2116,148244,School-College or University,Bastyr University,Bastyr,14500 Juanita Dr NE,98028,-122.25136558,47.73019704,10,LAKE WASHINGTON,2426049007,242604,9007,School-College or University,0
-122.353914665822614,47.471124894148822,592,1259,133,School-Elementary,Seahurst Elementary School,Seahurst,14603 14th Ave SW,98166,-122.35391705,47.47112308,10,HIGHLINE,1430800010,143080,0010,School-Elementary,3382
-122.14485904555805,47.590452891079785,593,194,91,School-Elementary,Eastside Christian School,Eastside Christian,14615 SE 22nd St,98007,-122.1448608,47.59045073,20,BELLEVUE,8838900200,883890,0200,School-Elementary,0
-122.14113887414203,47.592088760954368,594,6600687,90,School-Alternative,Big Picture School,Big Picture,14844 SE 22nd St,98007,-122.14114062,47.59208659,10,BELLEVUE,0224059054,022405,9054,School-Alternative,
-122.320576983516602,47.632749845919456,595,6600648,428236,School-Elementary,Bright Water School - Waldorf,Bright Water,1501 10th Ave E,98102,-122.32057862,47.63274802,20,SEATTLE,2025049051,202504,9051,School-Elementary,0
-122.138864052632428,47.497347084839063,596,745,2411,School-Elementary,Apollo Elementary School,Apollo,15025 SE 117th St,98059,-122.13886624,47.49734487,10,ISSAQUAH,0638100185,063810,0185,School-Elementary,3746
-122.230856375880293,47.738631281740403,597,258,5929,School-Elementary,Moorlands Elementary School,Moorlands,15115 84th Ave NE,98028,-122.23085752,47.73862931,10,NORTHSHORE,5631500036,563150,0036,School-Elementary,3442
-122.335275600911828,47.738587441130228,598,6600110,130194,School-Elementary,The Evergreen School,Evergreen,15201 Meridian Ave N,98133,-122.33527676,47.73858568,20,SHORELINE,1826049236,182604,9236,School-Elementary,0
-122.137630547977381,47.686789743479657,599,6600020,12149,School-Other Facility,Support Service Center,Support Service Center,15212 NE 95th St,98052,-122.13763185,47.68678761,10,LAKE WASHINGTON,9430500100,943050,0100,School-Other Facility,0
-122.360185667374509,47.465967940263575,600,1262,795370,School-Elementary,St. Francis of Assisi School,St. Francis of Assisi,15216 21st Ave SW,98166,-122.36018808,47.46596614,20,HIGHLINE,1901600005,190160,0005,School-Elementary,0
-122.30909972800093,47.740360405596434,601,6600678,735678,School-Alternative,Fircrest School,Fircrest,15230 15th Ave NE,98155,-122.30910088,47.74035859,20,SHORELINE,1626049010,162604,9010,School-Alternative,0
-122.304733797948813,47.741214719205907,602,1237,138088,School-High,Shorecrest High School,Shorecrest,15343 25th Ave NE,98155,-122.30473495,47.7412129,10,SHORELINE,1626049008,162604,9008,School-High,3343
-122.350317197658399,47.740730071105133,603,6600680,137319,School-Elementary,Northwest School for Deaf and Hard-of-Hearing Children,NW School Hearing Impaired,15303 Westminster Way N,98133,-122.35031835,47.74072835,20,SHORELINE,0306500020,030650,0020,School-Elementary,0
-122.222788823705272,47.740640953978676,604,251,5927,School-High,Inglemoor High School,Inglemoor,15500 Simonds Rd NE,98028,-122.22278995,47.74063897,10,NORTHSHORE,1826059008,182605,9008,School-High,3492
-122.06631263045287,47.462193345137393,605,751,5771,School-Elementary,Maple Hills Elementary School,Maple Hills,15644 204th Ave SE,98059,-122.066315,47.46219096,10,ISSAQUAH,2023069035,202306,9035,School-Elementary,3637
-122.337960568573607,47.462275187891343,606,6600244,140,School-Other Facility,Administration Center-Highline,Admin,15675 Ambaum Blvd SW,98166,-122.337963,47.46227336,10,HIGHLINE,1222000040,122200,0040,School-Other Facility,0
-122.219462625379094,47.484881097005704,607,6600373,579881,School-K-12,Renton Christian Schools,Renton Christian,15717 152nd Ave SE,98058,-122.21946492,47.48487908,20,RENTON,4204400340,420440,0340,School-K-12,0
-122.128301942396931,47.612764066696109,608,221,107374,School-Elementary,Jewish Day School,Jewish Day,15749 NE 4th St,98008,-122.12830359,47.61276188,20,BELLEVUE,3525059047,352505,9047,School-Elementary,0
-122.458816200779069,47.462494704475553,609,6600713,21168,School-Alternative,Harbor School,Harbor,15920 Vashon Hwy SW,98070,-122.45881863,47.46249303,20,VASHON ISLAND,2023039020,202303,9020,School-Alternative,
-122.079471557071798,47.744720286609066,610,796,21184,School-Elementary,Cottage Lake Elementary School,Cottage Lake,15940 Avondale Rd NE,98077,-122.07947254,47.7447181,10,NORTHSHORE,1826069025,182606,9025,School-Elementary,3234
-122.312082898119769,47.564132363195625,611,915,465918,School-Junior High/Middle,Asa Mercer Middle School,Asa Mercer,1600 S Columbian Way,98108,-122.31208483,47.56413051,10,SEATTLE,1624049214,162404,9214,School-Junior High/Middle,3095
-122.211044871238997,47.625765247158661,612,110,104863,School-High,Bellevue Christian High School,Bellevue Christian,1601 98th Ave NE,98004,-122.21104651,47.62576323,20,BELLEVUE,3472800100,347280,0100,School-High,0
-122.178554138359132,47.465198284012722,613,743,609672,School-Elementary,Tiffany Park Elementary School,Tiffany Park,1601 Lake Youngs Way SE,98058,-122.17855653,47.46519617,10,RENTON,2123059057,212305,9057,School-Elementary,3702
-122.182776110291599,47.744310117837863,614,6600108,176349,School-Elementary,Evergreen Academy,Evergreen,16017 118th Pl NE,98011,-122.18277719,47.74430808,20,NORTHSHORE,1626059124,162605,9124,School-Elementary,0
-122.125403821856551,47.59876408562301,615,233,88,School-Junior High/Middle,Tillicum Middle School,Tillicum,16020 SE 16th St,98008,-122.12540553,47.59876189,10,BELLEVUE,0224059037,022405,9037,School-Junior High/Middle,3435
-122.185168857739882,47.458632308737911,616,721,611014,School-Elementary,Cascade Elementary School,Cascade,16022 116th Ave SE,98058,-122.18517129,47.45863021,10,RENTON,2823059034,282305,9034,School-Elementary,3337
-122.303019992020552,47.745722682000363,617,1224,16166,School-Junior High/Middle,Kellogg Middle School,Kellogg,16045 25th Ave NE,98155,-122.30302112,47.74572086,10,SHORELINE,1626049005,162604,9005,School-Junior High/Middle,3387
-122.359243669273155,47.747770411409519,618,1298,184059,School-College or University,Shoreline Community College,Shoreline CC,16101 Greenwood Ave N,98133,-122.35924479,47.74776871,10,SHORELINE,1326039001,132603,9001,School-College or University,0
-122.284831303565795,47.634077701802404,619,940,426089,School-Elementary,McGilvra Elementary School,McGilvra,1617 38th Ave E,98112,-122.28483293,47.63407582,10,SEATTLE,5318100820,531810,0820,School-Elementary,2201
-122.355957888388247,47.458133197753838,620,1247,130,School-Elementary,Gregory Heights Elementary School,Gregory Heights,16201 16th Ave SW,98166,-122.35596034,47.45813139,10,HIGHLINE,2523039001,252303,9001,School-Elementary,2844
-122.339868033178618,47.457059243101256,621,1263,754898,School-Junior High/Middle,Sylvester Middle School,Sylvester,16222 Sylvester Rd SW,98166,-122.33987049,47.45705742,10,HIGHLINE,3023049007,302304,9007,School-Junior High/Middle,2927
-122.122211482066291,47.614886874380723,622,6600584,111950,School-Elementary,Calvary Luthern,Calvary Lutheran,16239 NE 6th St,98008,-122.12221311,47.61488468,20,BELLEVUE,3316500185,331650,0185,School-Elementary,0
-122.124115581971964,47.62936432562465,623,219,66,School-High,Interlake High School,Interlake,16245 NE 24th St,98008,-122.12411715,47.62936214,10,BELLEVUE,2625059001,262505,9001,School-High,3588
-122.123489138343857,47.670993042613397,624,6600208,354683,School-Other Facility,Administration Center-Lake Washington,Admin,16250 NE 74th St,98052,-122.12349051,47.67099088,10,LAKE WASHINGTON,7202410070,720241,0070,School-Other Facility,0
-122.122499468418852,47.679372429828753,625,6600690,536743,School-Alternative,Transition Academy,Transition Academy,16315 NE 87th St,98052,-122.1225008,47.67937027,10,LAKE WASHINGTON,0225059099,022505,9099,School-Alternative,
-122.12024002102045,47.378280099020706,626,575,664034,School-Junior High/Middle,Mattson Middle School,Mattson,16400 SE 251st St,98042,-122.12024289,47.37827785,10,KENT,2422059168,242205,9168,School-Junior High/Middle,4127
-122.120066074752344,47.587818701659863,627,228,93,School-Elementary,Spiritridge Elementary School,Spiritridge,16401 SE 24th St,98008,-122.12006783,47.58781649,10,BELLEVUE,1224059122,122405,9122,School-Elementary,3634
-122.122274773605369,47.316581536321017,628,53,22,School-Elementary,Lake View Elementary School,Lake View,16401 SE 318th St,98092,-122.122278,47.3165793,10,AUBURN,1221059011,122105,9011,School-Elementary,4120
-122.12026095895385,47.767680166077142,629,805,81454,School-Elementary,Wellington Elementary School,Wellington,16501 NE 195th St,98072,-122.12026185,47.76767812,10,NORTHSHORE,0126059053,012605,9053,School-Elementary,4069
-122.31765564088407,47.749144393792122,630,1236,18010,School-Elementary,Ridgecrest Elementary School,Ridgecrest ,16516 10th Ave NE,98155,-122.31765676,47.7491426,10,SHORELINE,0826049052,082604,9052,School-Elementary,2703
-122.101974159339818,47.624740952836383,631,213,70,School-Elementary,Bennett Elementary School,Bennett,17900 NE 16th St,98008,-122.10197573,47.62473872,10,BELLEVUE,2525059102,252505,9102,School-Elementary,3705
-122.2519397125551,47.380324056752151,632,417,615980,School-Elementary,Kent Elementary School,Kent,24700 64th Ave S,98032,-122.2519426,47.38032212,10,KENT,5436200660,543620,0660,School-Elementary,0
-122.008773953590747,47.188550888501759,633,6600048,861125,School-Other Facility,Enumclaw Administration,Enumclaw Admin,2929 McDougall Ave,98022,-122.00877593,47.1885494,10,ENUMCLAW,2620069016,262006,9016,School-Other Facility,0
-122.325223294029982,47.68088794435932,634,6600653,336421,School-Junior High/Middle,Billings Middle School,Billings,7217 Woodlawn Ave NE,98115,-122.32522471,47.68088615,20,SEATTLE,9529100040,952910,0040,School-Junior High/Middle,0
-122.30033514136467,47.682236596564735,635,969,346015,School-Elementary,Northwest Montessori - Wedgwood,Northwest Montessori,7400 25th Ave NE,98115,-122.30033655,47.68223475,20,SEATTLE,9215400110,921540,0110,School-Elementary,0
-122.282822426683282,47.685575595988077,636,6600700,350419,School-Alternative,Thornton Creek Elementary School,Thornton Creek,7711 43rd Ave NE,98115,-122.28282382,47.68557372,10,SEATTLE,6392002430,639200,2430,School-Alternative,
-122.228325688119511,47.537686519202289,637,543,191896,School-Junior High/Middle,Islander Middle School,Islander,8225 SE 72nd St,98040,-122.22832773,47.53768453,10,MERCER ISLAND,2524049144,252404,9144,School-Junior High/Middle,3219
-122.218846737904272,47.759860389053799,638,245,178050,School-High,Bothell High School,Bothell,9130 NE 180th St,98011,-122.21884778,47.75985845,10,NORTHSHORE,0726059016,072605,9016,School-High,3106
-122.318016982654669,47.69427251109677,639,850,266898,School-Elementary,The Perkins School,Perkins,9005 Roosevelt Way NE,98115,-122.31801834,47.6942707,20,SEATTLE,5100402704,510040,2704,School-Elementary,0
-122.22513001375728,47.318564744929475,640,6600723,1144445,School-College or University,Green River College Auburn Center,Green R Coll - Auburn,1221 D St NE,98002,-122.22513324,47.31856275,,,,,,School-College or University,
-122.138094005144723,47.26425709533563,641,10000048,1000553,School-K-12,Muckleshoot Tribal School,Muckleshoot Tribal,15209 SE 376th St,98092,-122.13809753,47.2642549,20,AUBURN,3521059064,352105,9064,School-K-12,0
-122.116466565023401,47.244478360682962,642,10000049,806841,School-College or University,Muckleshoot Tribal College,Muckleshoot Tribal ,39811 Auburn-Enumclaw Road SE,98092,-122.11647011,47.24447619,20,AUBURN,0220059089,022005,9089,School-College or University,0
